Store Name,Address,City,Country,Postal Code
Marino Eye Care,8353 SW 124 Ste 106,Miami,FL,33156
i.designs,1607 Ponce de Leon Ste 110,Coral Gables,FL,33134
Marino Eye Care,8353 SW 124 Ste 106,Miami,FL,33156
i.designs,1607 Ponce de Leon Ste 110,Coral Gables,FL,33134
Eyeglass Galleria,12559 - A Biscayne Blvd  ,North Miami,FL,33181
Style Site ,19013 Biscayne Blvd East  ,Aventura,FL,33180
Naples Optical Center,728 9th Street North  ,Naples,FL,34102
Van Buskirk Opticians,798 Neapolitan Way South  ,Naples,FL,34103
Spectacles Of Naples,9118 Strada Place Suite 8125,Naples,FL,34108
Bonita Vision Center,25225 Chamber of Commerce Dr  ,Bonita Springs,FL,34135
Naples Optical Center,728 9th Street North  ,Naples,FL,34102
Van Buskirk Opticians,798 Neapolitan Way South  ,Naples,FL,34103
Naples Optical Too,5959 Pine Ridge Rd  ,Naples,FL,34119
Spectacles Of Naples,9118 Strada Place Suite 8125,Naples,FL,34108
Optical Impressions,2605 North Hiatus Road  ,Cooper City,FL,33026
Naples Optical Too,5959 Pine Ridge Rd  ,Naples,FL,34119
Marino Eye Care,8353 SW 124 Ste 106,Miami,FL,33156
i.designs,1607 Ponce de Leon Ste 110,Coral Gables,FL,33134
Style Site ,19013 Biscayne Blvd East  ,Aventura,FL,33180
Optical Impressions,2605 North Hiatus Road  ,Cooper City,FL,33026
Eyeglass Galleria,12559 - A Biscayne Blvd  ,North Miami,FL,33181
i.designs,1607 Ponce de Leon Ste 110,Coral Gables,FL,33134
Style Site ,19013 Biscayne Blvd East  ,Aventura,FL,33180
Eyeglass Galleria,12559 - A Biscayne Blvd  ,North Miami,FL,33181
Eye Catchers Optique,318 E. Palmetto Park Rd  ,Boca Raton,FL,33432
Ocean Optics,900 E Atlantic Ave Ste 17,Delray Beach,FL,33483
Optical Services,1901 S Osprey Ave  ,Sarasota,FL,34239
Moon & Company Eyewear,105 S Lemon Ave  ,Sarasota,FL,34236
Infocus Family Eyecare,8120 Lakewood Main St Ste 101,Lakewood Ranch,FL,34202
Dr. Hanson & Associates,4600 Summerlin Rd Ste C 4,Fort Myers,FL,33919
Dr. Hanson & Associates,4600 Summerlin Rd Ste C 4,Fort Myers,FL,33919
Grant Eyeglasses Inc,5248 Bank St  ,Fort Myers,FL,33907
Elmquist Eye Group,7970 Summerlin Lake Dr 2nd Floor,Fort Myers,FL,33907
I-Topian Optical,15245 S Tamiami Trail Ste 6,Fort Myers,FL,33908
Ewing Optical,11388 Okeechobee Blvd  ,Royal Palm Beach,FL,33411
Family Vision Center,3175 State Rd 7 Ste 100,Wellington ,FL,33449
Marciano Family Optometric ,1788 N Jog Rd  ,West Palm Beach,FL,33411
Schmidts Optical,2341 SE Federal Hwy  ,Stuart,FL,34994
Optical Gallery,4505 P.G.A Blvd  ,Palm Beach Gardens,FL,33418
Grant Eyeglasses Inc,5248 Bank St  ,Fort Myers,FL,33907
Ewing Optical,11388 Okeechobee Blvd  ,Royal Palm Beach,FL,33411
Optical Gallery,4505 P.G.A Blvd  ,Palm Beach Gardens,FL,33418
Marciano Family Optometric ,1788 N Jog Rd  ,West Palm Beach,FL,33411
Marciano Family Vision Assoc,11380 Prosperity Farms Rd Bldg E,West Palm Beach,FL,33410
Advanced Eyecare Specialists,319  Belvedere Rd Ste 1,West Palm Beach,FL,33405
Marciano Family Vision Assoc,11380 Prosperity Farms Rd Bldg E,West Palm Beach,FL,33410
Optical Gallery,4505 P.G.A Blvd  ,Palm Beach Gardens,FL,33418
Palm Beach Eyes,640 W Boynton Beach Blvd  ,Boynton Beach,FL,33426
Optical Factory & Showroom,800 E Bay Dr Ste G,Largo,FL,33770
OPTIK!  European Eyewear,300 Beach Drive NE Ste 115,St Petersburg,FL,33701
Moon & Company Eyewear,105 S Lemon Ave  ,Sarasota,FL,34236
Optical Services,1901 S Osprey Ave  ,Sarasota,FL,34239
Eagle Eye Vision Care,12950 Race Track Rd Ste 111,Tampa,FL,33626
Vision Source - Parrish,10060 US Hwy 301 North  ,Parrish,FL,34219
Vision Source - Parrish,10060 US Hwy 301 North  ,Parrish,FL,34219
OPTIK!  European Eyewear,300 Beach Drive NE Ste 115,St Petersburg,FL,33701
Infocus Family Eyecare,8120 Lakewood Main St Ste 101,Lakewood Ranch,FL,34202
Moon & Company Eyewear,105 S Lemon Ave  ,Sarasota,FL,34236
Vision Source - Parrish,10060 US Hwy 301 North  ,Parrish,FL,34219
Infocus Family Eyecare,8120 Lakewood Main St Ste 101,Lakewood Ranch,FL,34202
Moon & Company Eyewear,105 S Lemon Ave  ,Sarasota,FL,34236
Optical Services,1901 S Osprey Ave  ,Sarasota,FL,34239
Osceola Optique,3201 NE Skyline Dr Ste D,Jensen Beach,FL,34957
Innovation Eye Care,19475 Boggy Creek Rd Ste B,Orlando,FL,32832
Schmidts Optical,2341 SE Federal Hwy  ,Stuart,FL,34994
Osceola Optique,3201 NE Skyline Dr Ste D,Jensen Beach,FL,34957
Schmidts Optical,2341 SE Federal Hwy  ,Stuart,FL,34994
Optical Gallery,4505 P.G.A Blvd  ,Palm Beach Gardens,FL,33418
Marciano Family Vision Assoc,11380 Prosperity Farms Rd Bldg E,West Palm Beach,FL,33410
Osceola Optique,3201 NE Skyline Dr Ste D,Jensen Beach,FL,34957
Schmidts Optical,2341 SE Federal Hwy  ,Stuart,FL,34994
Optical Factory & Showroom,800 E Bay Dr Ste G,Largo,FL,33770
Eagle Eye Vision Care,12950 Race Track Rd Ste 111,Tampa,FL,33626
Visionary Eyecare Tampa,18707 N. Dale Mabry Hwy  ,Lutz,FL,33548
Visionary Eyecare Tampa,18707 N. Dale Mabry Hwy  ,Lutz,FL,33548
Eagle Eye Vision Care,12950 Race Track Rd Ste 111,Tampa,FL,33626
Tampa Eye Clinic,3000 W Martin Luther King Jr Blvd  ,Tampa,FL,33607
Optical Factory & Showroom,800 E Bay Dr Ste G,Largo,FL,33770
Losada Vision,6001 Vineland Rd Ste 105,Orlando,FL,32819
Oxford Eyes,1213 N Orange Ave  ,Orlando,FL,32804
Eye Associates Of Winter Park,1928 Howell Branch Rd  ,Winter Park,FL,32792
Innovation Eye Care,19475 Boggy Creek Rd Ste B,Orlando,FL,32832
Innovation Eye Care,19475 Boggy Creek Rd Ste B,Orlando,FL,32832
Stewart Family Eye Care,2990 Bliss Cove  Ste 1020,Oveido,FL,32765
Eye Associates Of Winter Park,1928 Howell Branch Rd  ,Winter Park,FL,32792
Oxford Eyes,1213 N Orange Ave  ,Orlando,FL,32804
Sealy Eye Center,1617 Meyer Street  ,Sealy,TX,77474
VeriCare Vision,1251 Pin Oak Rd Suite 128,Katy,TX,77494
Bellaire Family Eye Care,5001 Bissonnet St Ste 107,Bellaire,TX,77401
Houston Eye Associates-Tang,590 Chimney Rock  ,Houston,TX,77056
Houston Eye Associates-Gram,2855 Gramercy St Suite 2,Houston,TX,77025
Eyecare Leaders Pearland,1930 Pearland Pkwy Suite 160 ,Pearland,TX,77581
Nasa Vision Center,100 E Nasa Pkwy Suite 70,Webster,TX,77598
South Shore Eyecenter,2951 Marina Bay Dr Ste 100,League City,TX,77573
Houston Eye Associates-Gram,2855 Gramercy St Suite 2,Houston,TX,77025
Bellaire Family Eye Care,5001 Bissonnet St Ste 107,Bellaire,TX,77401
Insight Optical,2406 Sunset Blvd  ,Houston,TX,77005
South Shore Eyecenter,2951 Marina Bay Dr Ste 100,League City,TX,77573
Nasa Vision Center,100 E Nasa Pkwy Suite 70,Webster,TX,77598
Eyecare Leaders Pearland,1930 Pearland Pkwy Suite 160 ,Pearland,TX,77581
Houston Eye Associates-Gram,2855 Gramercy St Suite 2,Houston,TX,77025
Insight Optical,2406 Sunset Blvd  ,Houston,TX,77005
Gulf South Eye Asscociates,4224 Houma St Suite 100,Metairie,LA,70006
Dr. Leah Heitmeier Eyecare,1700 Veterans Memorial Blvd Ste 400,Metairie,LA,70005
Dr. Leah Heitmeier Eyecare,1700 Veterans Memorial Blvd Ste 400,Metairie,LA,70005
Gulf South Eye Asscociates,4224 Houma St Suite 100,Metairie,LA,70006
North Florida Cataract Special,4313 NW 8th Ave  ,Gainesville,FL,32605
Gainesville Opticians II,4220 NW 16th Blvd  ,Gainesville,FL,32605
Clear View Optix ,8481 S.E 165th Mulberry Ln  ,The Villages,FL,32162
Lange Eye Care,11834 CR 101  ,The Villages,FL,32162
Clear View Optix ,8481 S.E 165th Mulberry Ln  ,The Villages,FL,32162
Lange Eye Care,11834 CR 101  ,The Villages,FL,32162
North Florida Cataract Special,4313 NW 8th Ave  ,Gainesville,FL,32605
Gainesville Opticians II,4220 NW 16th Blvd  ,Gainesville,FL,32605
Eye Associates Of Winter Park,1928 Howell Branch Rd  ,Winter Park,FL,32792
Stewart Family Eye Care,2990 Bliss Cove  Ste 1020,Oveido,FL,32765
Eye Associates Of Winter Park,1928 Howell Branch Rd  ,Winter Park,FL,32792
Oxford Eyes,1213 N Orange Ave  ,Orlando,FL,32804
Losada Vision,6001 Vineland Rd Ste 105,Orlando,FL,32819
Luxe Vision Care + Optical,15511 W Hwy 71 Ste 170,Bee Cave,TX,78738
Lakeway Optical Shoppe,1007 Ranch Rd 620 S Ste 100,Lakeway,TX,78734
Tanglewood Vision Center,2110 Slaughter Ln Ste 123,Austin,TX,78748
Steiner Eye Care,"6111 N. FM 620 Building A, Suite 100",Austin,TX,78732
Tanglewood Vision Center,2110 Slaughter Ln Ste 123,Austin,TX,78748
Jackman Eye,3913 Medical Pkwy Ste 100,Austin,TX,78756
Eye Physicians Of Austin,5011 Burnet Rd  ,Austin,TX,78756
Luxe Vision Care + Optical,15511 W Hwy 71 Ste 170,Bee Cave,TX,78738
Tech Ridge Vision,500 Canyon Ridge Dr Suite 300,Austin,TX,78753
Jackman Eye,3913 Medical Pkwy Ste 100,Austin,TX,78756
Eye Physicians Of Austin,5011 Burnet Rd  ,Austin,TX,78756
Forest Creek Eye Center,1701 Red Bud Ln  ,Round Rock,TX,78664
Tanglewood Vision Center,2110 Slaughter Ln Ste 123,Austin,TX,78748
Round Rock Eyes,481 Sundance Parkway Ste 100,Round Rock,TX,78681
Sealy Eye Center,1617 Meyer Street  ,Sealy,TX,77474
VeriCare Vision,1251 Pin Oak Rd Suite 128,Katy,TX,77494
Premier Vision,14330 Vintage Preserve Pkwy Ste 1000,Houston,TX,77070
TSO Champions,5774 Cypress Creek Pkwy  ,Houston,TX,77069
TSO Champions,5774 Cypress Creek Pkwy  ,Houston,TX,77069
Premier Vision,14330 Vintage Preserve Pkwy Ste 1000,Houston,TX,77070
Houston Eye Associates-Tang,590 Chimney Rock  ,Houston,TX,77056
Berkeley Eye Institute,3100 Weslayan Ste 308,Houston,TX,77027
South Shore Eyecenter,2951 Marina Bay Dr Ste 100,League City,TX,77573
Nasa Vision Center,100 E Nasa Pkwy Suite 70,Webster,TX,77598
Eyecare Leaders Pearland,1930 Pearland Pkwy Suite 160 ,Pearland,TX,77581
Insight Optical,2406 Sunset Blvd  ,Houston,TX,77005
Accent Optical,1004 W Hwy 30 Suite 100,Gonzales,LA,70737
Smarter Eyewear LLC,3535 Perkins Rd Ste 330,Baton Rouge,LA,70808
The Optical Shoppe,7641 Jefferon Hwy  ,Baton Rouge,LA,70809
Accent Optical,1004 W Hwy 30 Suite 100,Gonzales,LA,70737
Gulf South Eye Asscociates,4224 Houma St Suite 100,Metairie,LA,70006
Dr. Leah Heitmeier Eyecare,1700 Veterans Memorial Blvd Ste 400,Metairie,LA,70005
Louisiana Family Eyecare,1431 Ochsner Blvd Ste A,Covington,LA,70433
The Optical Shoppe,7641 Jefferon Hwy  ,Baton Rouge,LA,70809
Dr. Leah Heitmeier Eyecare,1700 Veterans Memorial Blvd Ste 400,Metairie,LA,70005
Gulf South Eye Asscociates,4224 Houma St Suite 100,Metairie,LA,70006
Louisiana Family Eyecare,1431 Ochsner Blvd Ste A,Covington,LA,70433
Midtown Dental & Vision,4300 Bayou Blvd Ste 9,Pensacola,FL,32503
The Glasses Store,6190 N Davis Hwy  ,Pensacola,FL,32504
Midtown Dental & Vision,4300 Bayou Blvd Ste 9,Pensacola,FL,32503
The Glasses Store,6190 N Davis Hwy  ,Pensacola,FL,32504
Eye Associates of Tallahassee,2020 Fleischmann Rd  ,Tallahassee,FL,32308
Eye Associates of Tallahassee,2020 Fleischmann Rd  ,Tallahassee,FL,32308
Eye Associates of Tallahassee,2020 Fleischmann Rd  ,Tallahassee,FL,32308
Wilson Eye Center,2108 N Patterson St  ,Valdosta,GA,31602
Gainesville Opticians II,4220 NW 16th Blvd  ,Gainesville,FL,32605
North Florida Cataract Special,4313 NW 8th Ave  ,Gainesville,FL,32605
Davalt Optical,807 Lomax St  ,Jacksonville,FL,32204
St. Johns Eye Associates,2039 Hendricks Ave Unit 213,Jacksonville,FL,32207
St. Johns Eye Associates,161-3 Hampton Point Dr  ,St. Augustine,FL,32092
St. Johns Eye Associates,150 Village Commons Drive Ste A-102,Saint Augustine,FL,32092
St. Johns Eye Associates,2039 Hendricks Ave Unit 213,Jacksonville,FL,32207
Davalt Optical,807 Lomax St  ,Jacksonville,FL,32204
St. Johns Eye Associates,200 Nocatee Village Drive  ,Ponte Vedra,FL,32081
St. Johns Eye Associates,200 Nocatee Village Drive  ,Ponte Vedra,FL,32081
Ponte Vedra Eye Associates,150 Professional Dr Ste 300,Ponte Vedra Beach,FL,32082
St. Johns Eye Associates,150 Village Commons Drive Ste A-102,Saint Augustine,FL,32092
St. Johns Eye Associates,161-3 Hampton Point Dr  ,St. Augustine,FL,32092
Lakeway Optical Shoppe,1007 Ranch Rd 620 S Ste 100,Lakeway,TX,78734
Luxe Vision Care + Optical,15511 W Hwy 71 Ste 170,Bee Cave,TX,78738
Lakeline Vision,3419 El Salido Pkwy  ,Cedar Park,TX,78613
Steiner Eye Care,"6111 N. FM 620 Building A, Suite 100",Austin,TX,78732
Round Rock Eyes,481 Sundance Parkway Ste 100,Round Rock,TX,78681
Forest Creek Eye Center,1701 Red Bud Ln  ,Round Rock,TX,78664
Lakeline Vision,3419 El Salido Pkwy  ,Cedar Park,TX,78613
Steiner Eye Care,"6111 N. FM 620 Building A, Suite 100",Austin,TX,78732
Tech Ridge Vision,500 Canyon Ridge Dr Suite 300,Austin,TX,78753
Forest Creek Eye Center,1701 Red Bud Ln  ,Round Rock,TX,78664
Round Rock Eyes,481 Sundance Parkway Ste 100,Round Rock,TX,78681
Tech Ridge Vision,500 Canyon Ridge Dr Suite 300,Austin,TX,78753
Waco Vision Source,1000 W. Hwy 6 Suite 210,Waco,TX,76712
Premier Vision,14330 Vintage Preserve Pkwy Ste 1000,Houston,TX,77070
TSO Champions,5774 Cypress Creek Pkwy  ,Houston,TX,77069
Smarter Eyewear LLC,3535 Perkins Rd Ste 330,Baton Rouge,LA,70808
The Optical Shoppe,7641 Jefferon Hwy  ,Baton Rouge,LA,70809
Accent Optical,1004 W Hwy 30 Suite 100,Gonzales,LA,70737
Miss-Lou Eye Care,202 Advocate Row  ,Vidalia,LA,71373
Louisiana Family Eyecare,1431 Ochsner Blvd Ste A,Covington,LA,70433
The Optical Shoppe,7641 Jefferon Hwy  ,Baton Rouge,LA,70809
Smarter Eyewear LLC,3535 Perkins Rd Ste 330,Baton Rouge,LA,70808
Accent Optical,1004 W Hwy 30 Suite 100,Gonzales,LA,70737
Louisiana Family Eyecare,1431 Ochsner Blvd Ste A,Covington,LA,70433
Belle Vue Specialty Eye Care,7117 US-98  Ste 30,Hattiesburg,MS,39402
Dr. Leah Heitmeier Eyecare,1700 Veterans Memorial Blvd Ste 400,Metairie,LA,70005
Gulf South Eye Asscociates,4224 Houma St Suite 100,Metairie,LA,70006
Belle Vue Specialty Eye Care,7117 US-98  Ste 30,Hattiesburg,MS,39402
The Glasses Store,6190 N Davis Hwy  ,Pensacola,FL,32504
The Glasses Store,6190 N Davis Hwy  ,Pensacola,FL,32504
Midtown Dental & Vision,4300 Bayou Blvd Ste 9,Pensacola,FL,32503
Midtown Dental & Vision,4300 Bayou Blvd Ste 9,Pensacola,FL,32503
The Glasses Store,6190 N Davis Hwy  ,Pensacola,FL,32504
Eye Associates of Tallahassee,2020 Fleischmann Rd  ,Tallahassee,FL,32308
Eye Associates of Tallahassee,2020 Fleischmann Rd  ,Tallahassee,FL,32308
Wilson Eye Center,2108 N Patterson St  ,Valdosta,GA,31602
South Georgia Eye Partners ,416 Tift Ave N  ,Tifton,GA,31794
Wilson Eye Center,2108 N Patterson St  ,Valdosta,GA,31602
South Georgia Eye Partners ,416 Tift Ave N  ,Tifton,GA,31794
Eye Associates of Tallahassee,2020 Fleischmann Rd  ,Tallahassee,FL,32308
Wilson Eye Center,2108 N Patterson St  ,Valdosta,GA,31602
Davalt Optical,807 Lomax St  ,Jacksonville,FL,32204
St. Johns Eye Associates,2039 Hendricks Ave Unit 213,Jacksonville,FL,32207
Ponte Vedra Eye Associates,150 Professional Dr Ste 300,Ponte Vedra Beach,FL,32082
St. Johns Eye Associates,200 Nocatee Village Drive  ,Ponte Vedra,FL,32081
Ponte Vedra Eye Associates,150 Professional Dr Ste 300,Ponte Vedra Beach,FL,32082
St. Johns Eye Associates,2039 Hendricks Ave Unit 213,Jacksonville,FL,32207
Davalt Optical,807 Lomax St  ,Jacksonville,FL,32204
St. Johns Eye Associates,200 Nocatee Village Drive  ,Ponte Vedra,FL,32081
Arizona Primary Eye Care,4413 E Broadway  ,Tucson,AZ,85711
Fashion Eye Center,7111 N Oracle Rd  ,Tucson,AZ,85704
Arizona Primary Eye Care,4413 E Broadway  ,Tucson,AZ,85711
Fashion Eye Center,7111 N Oracle Rd  ,Tucson,AZ,85704
Vista Eye Care,2448 Missouri Ave  ,Las Cruces,NM,88001
Vista Eye Care,2448 Missouri Ave  ,Las Cruces,NM,88001
Waco Vision Source,1000 W. Hwy 6 Suite 210,Waco,TX,76712
Waco Vision Source,1000 W. Hwy 6 Suite 210,Waco,TX,76712
Waco Vision Source,1000 W. Hwy 6 Suite 210,Waco,TX,76712
Ragsdale & Martin Optical Inc,2740 S Broadway  ,Tyler,TX,75701
Miss-Lou Eye Care,202 Advocate Row  ,Vidalia,LA,71373
Miss-Lou Eye Care,202 Advocate Row  ,Vidalia,LA,71373
Miss-Lou Eye Care,202 Advocate Row  ,Vidalia,LA,71373
Belle Vue Specialty Eye Care,7117 US-98  Ste 30,Hattiesburg,MS,39402
Belle Vue Specialty Eye Care,7117 US-98  Ste 30,Hattiesburg,MS,39402
Montgomery Eye Physicians MEP,2752 Zelda Rd  ,MONTGOMERY ,AL,36106
Montgomery Eye Physicians MEP,2752 Zelda Rd  ,MONTGOMERY ,AL,36106
South Georgia Eye Partners ,416 Tift Ave N  ,Tifton,GA,31794
South Georgia Eye Partners ,416 Tift Ave N  ,Tifton,GA,31794
Wilson Eye Center,2108 N Patterson St  ,Valdosta,GA,31602
South Georgia Eye Partners ,416 Tift Ave N  ,Tifton,GA,31794
ForSight Unique Eyecare,350 Martin Luther King Jr. Blvd.  ,Savannah,GA,31401
Professional Eye Care of State,214 Savannah Ave  ,Statesboro,GA,30458
ForSight Unique Eyecare,350 Martin Luther King Jr. Blvd.  ,Savannah,GA,31401
Optical Solutions,50 Shelter Cove Ln Ste G,Hilton Head Island,SC,29928
Optical Solutions,27 Dr Mellichamp Dr Ste 100,Bluffton,SC,29910
Optical Solutions,10 Hospital Center Commons Ste 100,Hilton Head,SC,29926
Optical Solutions,50 Shelter Cove Ln Ste G,Hilton Head Island,SC,29928
Optical Solutions,10 Hospital Center Commons Ste 100,Hilton Head,SC,29926
Optical Solutions,27 Dr Mellichamp Dr Ste 100,Bluffton,SC,29910
Stephen J Moffett OD,950 Orange Ave  ,Coronado,CA,92118
Optical Artisans,930 Silverado St  ,La Jolla,CA,92037
Sharp Rees Stealy Optical Shop,300 Fir St  ,San Diego,CA,92101
Gordon Schanzlin New Vision ,4130 La Jolla Village Dr Ste 300,La Jolla,CA,92037
Otay Ranch Eyeworks,1741 Eastlake Pkwy #101  ,Chula Vista,CA,91915
Stephen J Moffett OD,950 Orange Ave  ,Coronado,CA,92118
Eyestyles of Rancho San Diego,2907 Jamacha Rd  Ste A,El Cajon,CA,92019
Sharp Rees Stealy Optical Shop,300 Fir St  ,San Diego,CA,92101
Otay Ranch Eyeworks,1741 Eastlake Pkwy #101  ,Chula Vista,CA,91915
Eyestyles of Rancho San Diego,2907 Jamacha Rd  Ste A,El Cajon,CA,92019
Sharp Rees Stealy Optical Shop,300 Fir St  ,San Diego,CA,92101
Stephen J Moffett OD,950 Orange Ave  ,Coronado,CA,92118
Insight Eyecare & Eyewear,4925 S Alma School Rd Ste 1,Chandler,AZ,85248
Fashion Eye Center,7111 N Oracle Rd  ,Tucson,AZ,85704
Arizona Primary Eye Care,4413 E Broadway  ,Tucson,AZ,85711
Arizona Primary Eye Care,4413 E Broadway  ,Tucson,AZ,85711
Fashion Eye Center,7111 N Oracle Rd  ,Tucson,AZ,85704
Vista Eye Care,2448 Missouri Ave  ,Las Cruces,NM,88001
Vista Eye Care,2448 Missouri Ave  ,Las Cruces,NM,88001
Vista Eye Care,2448 Missouri Ave  ,Las Cruces,NM,88001
Wedgwood Eye Care ,6037 Harris Pkway  ,Fort Worth,TX,76132
Eyes on Camp Bowie,6333 Camp Bowie Blvd Ste 272,Fort Worth,TX,76116
CHROMA modern Eyewear Eyecare,1700 Montgomery St  ,Fort Worth,TX,76107
Wedgwood Eye Care ,6037 Harris Pkway  ,Fort Worth,TX,76132
CHROMA modern Eyewear Eyecare,1700 Montgomery St  ,Fort Worth,TX,76107
American Eyewear Inc,64 Highland Park Village  ,Dallas,TX,75205
Eyes on Camp Bowie,6333 Camp Bowie Blvd Ste 272,Fort Worth,TX,76116
Goo Goo Eyes,4410 Lovers Ln  ,Dallas,TX,75225
Tom Barrett Optical,5500 Greenville Ave #222,Dallas,TX,75206
American Eyewear Inc,64 Highland Park Village  ,Dallas,TX,75205
Goo Goo Eyes,4410 Lovers Ln  ,Dallas,TX,75225
Peepers Highland Park Village,8309 Preston Rd  ,Dallas,TX,75225
Sage Optical,6007 Berkshire Lane  ,Dallas,TX,75225
Ragsdale & Martin Optical Inc,2740 S Broadway  ,Tyler,TX,75701
Ragsdale & Martin Optical Inc,2740 S Broadway  ,Tyler,TX,75701
Jans Optical,104 North Monroe St  ,Ruston,LA,71270
Jans Optical,104 North Monroe St  ,Ruston,LA,71270
Miss-Lou Eye Care,202 Advocate Row  ,Vidalia,LA,71373
Montgomery Eye Physicians MEP,2752 Zelda Rd  ,MONTGOMERY ,AL,36106
Montgomery Eye Physicians MEP,2752 Zelda Rd  ,MONTGOMERY ,AL,36106
Professional Eye Care of State,214 Savannah Ave  ,Statesboro,GA,30458
Professional Eye Care of State,214 Savannah Ave  ,Statesboro,GA,30458
ForSight Unique Eyecare,350 Martin Luther King Jr. Blvd.  ,Savannah,GA,31401
Optical Solutions,27 Dr Mellichamp Dr Ste 100,Bluffton,SC,29910
Optical Solutions,27 Dr Mellichamp Dr Ste 100,Bluffton,SC,29910
Michael R Harris OD,970 Ribaut Rd Ste 2,Beaufort,SC,29902
Optical Solutions,10 Hospital Center Commons Ste 100,Hilton Head,SC,29926
Optical Solutions,50 Shelter Cove Ln Ste G,Hilton Head Island,SC,29928
ForSight Unique Eyecare,350 Martin Luther King Jr. Blvd.  ,Savannah,GA,31401
Michael R Harris OD,970 Ribaut Rd Ste 2,Beaufort,SC,29902
Optical Solutions,10 Hospital Center Commons Ste 100,Hilton Head,SC,29926
Optical Solutions,50 Shelter Cove Ln Ste G,Hilton Head Island,SC,29928
Whitlock Optical,863 Coleman Blvd  ,Mt Pleasant,SC,29464
Whitlock Optical,863 Coleman Blvd  ,Mt Pleasant,SC,29464
Schatan Optical Gallery,24580 Hawthorne Blvd  ,Torrance,CA,90505
Redondo Optometry,249 Avenida Del Norte  ,Redondo Beach,CA,90277
Hope Vision Care,3524 Torrance Blvd  Ste 100,Torrance,CA,90503
Kenneth W. Wright MD,2410 Torrance Blvd Ste B,Torrance,CA,90501
Lisa A Hopkins OD,5610 E 2nd St  ,Long Beach,CA,90803
Optometry Store,5724 E 7th St  ,Long Beach,CA,90803
Tayani Institute,653 Camino de Los Mares Ste 103,San Clemente,CA,92673
Cler & Cook OD,265 Laguna Ave  ,Laguna Beach,CA,92651
Parkview Optometry,5327 University Dr  ,Irvine,CA,92612
Carlsbad Optometry,2653 Gateway Rd Ste 101,Carlsbad,CA,92009
Woodbridge Optometry,4505 Barranca Pkwy Ste C,Irvine,CA,92604
Shadowridge Family Vision Cent,741 Shadowridge Dr  ,Vista,CA,92083
Dr Alissa Wald & Associates,1545 Adams Ave Ste 100,Costa Mesa,CA,92626
Modern Eyes Optometry,7630 Via Campanile Ste 134,Carlsbad,CA,92009
Shadowridge Family Vision Cent,741 Shadowridge Dr  ,Vista,CA,92083
Sharp Rees - Rancho Bernardo,16899 W Bernardo Dr The Optical Shop ,San Diego,CA,92127
Carlsbad Optometry,2653 Gateway Rd Ste 101,Carlsbad,CA,92009
Poway Eyeworks Optometry ,14757 Pomerado Rd  ,Poway,CA,92064
Modern Eyes Optometry,7630 Via Campanile Ste 134,Carlsbad,CA,92009
Desert Vision Optometry,555 S Sunrise Way Ste 401,Palm Springs,CA,92264
Poway Eyeworks Optometry ,14757 Pomerado Rd  ,Poway,CA,92064
Sharp Rees - Rancho Bernardo,16899 W Bernardo Dr The Optical Shop ,San Diego,CA,92127
Eyestyles of Rancho San Diego,2907 Jamacha Rd  Ste A,El Cajon,CA,92019
Camelback Eye Care,114 W Camelback Rd Ste 1,Phoenix,AZ,85013
Insight Eyecare & Eyewear,4925 S Alma School Rd Ste 1,Chandler,AZ,85248
Focused on Eyes,2350 W Ray Rd Ste 1,Chandler,AZ,85224
Camelback Eye Care,114 W Camelback Rd Ste 1,Phoenix,AZ,85013
Eyecare Plus,4441 N 75 St  ,Scottsdale,AZ,85251
Optical Expressions,6137 N Scottsdale Rd Ste 113,Scottsdale,AZ,85250
Insight Eyecare & Eyewear,4925 S Alma School Rd Ste 1,Chandler,AZ,85248
Focused on Eyes,2350 W Ray Rd Ste 1,Chandler,AZ,85224
Eyecare Plus,4441 N 75 St  ,Scottsdale,AZ,85251
Optical Expressions,6137 N Scottsdale Rd Ste 113,Scottsdale,AZ,85250
Tozer Eye Center,9811 N 95th St Ste 101,Scottsdale,AZ,85258
Wittman Vision,10619 Quaker Ave  ,Lubbock,TX,79424
Pro Style Optical,3801 24th St B  ,Lubbock,TX,79410
Wittman Vision,10619 Quaker Ave  ,Lubbock,TX,79424
Pro Style Optical,3801 24th St B  ,Lubbock,TX,79410
Wittman Vision,10619 Quaker Ave  ,Lubbock,TX,79424
Pro Style Optical,3801 24th St B  ,Lubbock,TX,79410
Eyes on Camp Bowie,6333 Camp Bowie Blvd Ste 272,Fort Worth,TX,76116
CHROMA modern Eyewear Eyecare,1700 Montgomery St  ,Fort Worth,TX,76107
Wedgwood Eye Care ,6037 Harris Pkway  ,Fort Worth,TX,76132
Eyes on Little Elm,3010 FM 423 Ste 200,Little Elm,TX,75068
Focal Point Eyecare,1428 W Hebron Parkway Ste 125,Carrollton,TX,75010
Frisco Family Eyecare,5858 Main St Ste 110,Frisco,TX,75033
Eyes on Little Elm,3010 FM 423 Ste 200,Little Elm,TX,75068
Frisco Family Eyecare,5858 Main St Ste 110,Frisco,TX,75033
Luxe Eyewear,6635 Cowboys Way Ste 115,Frisco,TX,75034
Spectacles Fine Eyewear,7500 Windrose Ave Ste B-180,Plano,TX,75024
Focal Point Eyecare,1428 W Hebron Parkway Ste 125,Carrollton,TX,75010
Rosemore Eye Care,4637 Hedgcoxe Rd Ste 108,Plano,TX,75024
Lone Star Vision,5044 Tennyson Pkwy Ste B,Plano,TX,75024
Eye Care Avenue,5000  Eldorado Parkway #310,Frisco,TX,75033
Rosemore Eye Care,4637 Hedgcoxe Rd Ste 108,Plano,TX,75024
Lakeside Vision And Optical,4012 Preston Rd Ste 500,Plano,TX,75093
Lone Star Vision,5044 Tennyson Pkwy Ste B,Plano,TX,75024
Stokol & Fagala Optometry,1301 West Campbell Rd  ,Richardson,TX,75080
Luxe Eyewear,6635 Cowboys Way Ste 115,Frisco,TX,75034
Frisco Family Eyecare,5858 Main St Ste 110,Frisco,TX,75033
Spectacles Fine Eyewear,7500 Windrose Ave Ste B-180,Plano,TX,75024
Eye & Contact Lens Assoc Of N,18111 Preston Rd Ste 180,Dallas,TX,75252
Ragsdale & Martin Optical Inc,2740 S Broadway  ,Tyler,TX,75701
Jans Optical,104 North Monroe St  ,Ruston,LA,71270
Jans Optical,104 North Monroe St  ,Ruston,LA,71270
JJ Eyes - Birmingham,2814 18th St S  ,Birmingham,AL,35209
iiis,1925 11th Avenue S  ,Birmingham,AL,35205
InVision Ophthalmology,2660 10th Ave S Ste 201,Birmingham,AL,35205
Mountain Brook Eye Care,921 Jemison Ln  ,MOUNTAIN BROOK,AL,35223
Eye Do,3125 Sunview  Dr  ,Birmingham,AL,35243
Eye Do,3125 Sunview  Dr  ,Birmingham,AL,35243
Mountain Brook Eye Care,921 Jemison Ln  ,MOUNTAIN BROOK,AL,35223
JJ Eyes - Birmingham,2814 18th St S  ,Birmingham,AL,35209
iiis,1925 11th Avenue S  ,Birmingham,AL,35205
InVision Ophthalmology,2660 10th Ave S Ste 201,Birmingham,AL,35205
Eye Do,3125 Sunview  Dr  ,Birmingham,AL,35243
Mountain Brook Eye Care,921 Jemison Ln  ,MOUNTAIN BROOK,AL,35223
JJ Eyes - Birmingham,2814 18th St S  ,Birmingham,AL,35209
InVision Ophthalmology,2660 10th Ave S Ste 201,Birmingham,AL,35205
iiis,1925 11th Avenue S  ,Birmingham,AL,35205
Xperience Drevagee,5745 Wendy Bagwell Pkwy  Ste 32,Hiram,GA,30141
Elevated Eyecare,917 Jonesboro Rd Ste A,McDonough,GA,30253
Fallas Family Vision,69 Griffin Street  ,McDonough,GA,30253
Highland Eye Boutique,1056 North Highland Avenue NE  ,Atlanta,GA,30306
Fallas Family Vision,69 Griffin Street  ,McDonough,GA,30253
Elevated Eyecare,917 Jonesboro Rd Ste A,McDonough,GA,30253
The Eye Center,1192 Dogwood Dr S E  ,Conyers,GA,30012
Highland Eye Boutique,1056 North Highland Avenue NE  ,Atlanta,GA,30306
Fallas Family Vision,69 Griffin Street  ,McDonough,GA,30253
The Eye Center,1192 Dogwood Dr S E  ,Conyers,GA,30012
Elevated Eyecare,917 Jonesboro Rd Ste A,McDonough,GA,30253
Professional Eye Care of State,214 Savannah Ave  ,Statesboro,GA,30458
My Optical,808 Highway 378 Ste A,Lexington,SC,29072
Eye On Gervais,1219 Lincoln St  ,Columbia,SC,29201
Michael R Harris OD,970 Ribaut Rd Ste 2,Beaufort,SC,29902
My Optical,808 Highway 378 Ste A,Lexington,SC,29072
Whitlock Optical,863 Coleman Blvd  ,Mt Pleasant,SC,29464
Michael R Harris OD,970 Ribaut Rd Ste 2,Beaufort,SC,29902
Whitlock Optical,863 Coleman Blvd  ,Mt Pleasant,SC,29464
Occhiali Fine Eyewear,1046 Coast Village Rd  ,Santa Barbara,CA,93108
Ventura Optometric Vision Care,1280 So Victoria Ave  Ste 100,Ventura,CA,93003
Topa Topa Optometry,1211 Maricopa Hwy Ste 101,Ojai,CA,93023
Ventura Optometric Vision Care,1280 So Victoria Ave  Ste 100,Ventura,CA,93003
Boulevard Optometry,2316 E Ventura Blvd  ,Camarillo,CA,93010
Kevin Hirano OD,3185 Old Conejo Rd  ,Newbury Park,CA,91320
Topa Topa Optometry,1211 Maricopa Hwy Ste 101,Ojai,CA,93023
Occhiali Fine Eyewear,1046 Coast Village Rd  ,Santa Barbara,CA,93108
Academy Optical,542 Hillcrest Dr Ste B,Thousand Oaks,CA,91360
Dr Gary D Polan,970 Monument St Ste 102,Pacific Palisades,CA,90272
Dr. Robert C. Dickey ,901 Montana Ave Ste A,Santa Monica,CA,90403
Silver & Taketa ODs,2901 Wilshire Blvd Ste 100,Santa Monica,CA,90403
Dr Carolyn Wong O.D.,11540 Santa Monica Blvd Ste 202,West Los Angeles,CA,90025
Visual Effects Optometry,110 W Birch St Unit 3,Brea,CA,92821
Mosier Eye Center,265 Laguna Rd  ,Fullerton,CA,92835
Steven Downs OD,17829 Santiago Blvd.  ,Villa Park,CA,92861
Bender Eye,13972 Laurinda Way  ,North Tustin,CA,92705
17th Street Optometry,17300 E 17th St Ste M,Tustin,CA,92780
Desert Vision Optometry,555 S Sunrise Way Ste 401,Palm Springs,CA,92264
Steven Downs OD,17829 Santiago Blvd.  ,Villa Park,CA,92861
Bender Eye,13972 Laurinda Way  ,North Tustin,CA,92705
17th Street Optometry,17300 E 17th St Ste M,Tustin,CA,92780
Woodbridge Optometry,4505 Barranca Pkwy Ste C,Irvine,CA,92604
Parkview Optometry,5327 University Dr  ,Irvine,CA,92612
Visual Effects Optometry,110 W Birch St Unit 3,Brea,CA,92821
Tayani Institute,653 Camino de Los Mares Ste 103,San Clemente,CA,92673
Desert Vision Optometry,555 S Sunrise Way Ste 401,Palm Springs,CA,92264
Rummel Optical,1022 Willow Creek Rd Ste 200,Prescott,AZ,86301
Pinnacle Peak Eyecare,7420 E Pinnacle Peak Rd Ste 122,Scottsdale,AZ,85255
"Factor, OD",4550 East Bell Rd  Ste 104,Phoenix,AZ,85032
Optics Of Scottsdale ,20301 N Hayden Rd Ste 100,Scottsdale,AZ,85255
Village Eyeworks,10625 N Tatum Blvd  ,Phoenix,AZ,85028
Pinnacle Peak Eyecare,7420 E Pinnacle Peak Rd Ste 122,Scottsdale,AZ,85255
Optics Of Scottsdale ,20301 N Hayden Rd Ste 100,Scottsdale,AZ,85255
Tozer Eye Center,9811 N 95th St Ste 101,Scottsdale,AZ,85258
"Factor, OD",4550 East Bell Rd  Ste 104,Phoenix,AZ,85032
Pro Style Optical,3801 24th St B  ,Lubbock,TX,79410
Wittman Vision,10619 Quaker Ave  ,Lubbock,TX,79424
Pro Style Optical,3801 24th St B  ,Lubbock,TX,79410
Wittman Vision,10619 Quaker Ave  ,Lubbock,TX,79424
Pro Style Optical,3801 24th St B  ,Lubbock,TX,79410
Eyes on Little Elm,3010 FM 423 Ste 200,Little Elm,TX,75068
Frisco Family Eyecare,5858 Main St Ste 110,Frisco,TX,75033
Eye Care Avenue,5000  Eldorado Parkway #310,Frisco,TX,75033
Luxe Eyewear,6635 Cowboys Way Ste 115,Frisco,TX,75034
Jones Eye Institute,4301 W Markham St Ste 523,Little Rock,AR,72205
Children’s Eye & Surgery of AR,11825 Hinson Rd Ste 103,Little Rock,AR,72212
iiis,1925 11th Avenue S  ,Birmingham,AL,35205
InVision Ophthalmology,2660 10th Ave S Ste 201,Birmingham,AL,35205
JJ Eyes - Birmingham,2814 18th St S  ,Birmingham,AL,35209
Mountain Brook Eye Care,921 Jemison Ln  ,MOUNTAIN BROOK,AL,35223
InVision Ophthalmology,2660 10th Ave S Ste 201,Birmingham,AL,35205
iiis,1925 11th Avenue S  ,Birmingham,AL,35205
Mountain Brook Eye Care,921 Jemison Ln  ,MOUNTAIN BROOK,AL,35223
JJ Eyes - Birmingham,2814 18th St S  ,Birmingham,AL,35209
Xperience Drevagee,5745 Wendy Bagwell Pkwy  Ste 32,Hiram,GA,30141
Xperience Drevagee,5745 Wendy Bagwell Pkwy  Ste 32,Hiram,GA,30141
Wildwood Eyecare,1545 Powers Ferry Rd Ste 240,Marietta,GA,30067
Roswell Eye Clinic,1190 Grimes Bridge Rd  ,Roswell,GA,30075
Ross Eyecare,2625 Piedmont Rd  ,Atlanta,GA,30324
Briggs Vision Group,1637 Mt. Vernon Rd Ste 100,DUNWOODY,GA,30338
Highland Eye Boutique,1056 North Highland Avenue NE  ,Atlanta,GA,30306
Johns Creek Eyecare,3005 Old Alabama Rd Ste 300,John Creek,GA,30022
Eyedream Eyecare ,7774 McGinnis Ferry Rd  ,Suwanee,GA,30024
Briggs Vision Group,1637 Mt. Vernon Rd Ste 100,DUNWOODY,GA,30338
Roswell Eye Clinic,1190 Grimes Bridge Rd  ,Roswell,GA,30075
North Georgia Eye Clinics ,5670 Old Winder Hwy  ,Braselton,GA,30517
North Georgia Eye Clinics ,1485 Jesse Jewell Pkwy NE Ste100,Gainesville,GA,30501
The Eye Center,1192 Dogwood Dr S E  ,Conyers,GA,30012
Eyedream Eyecare ,7774 McGinnis Ferry Rd  ,Suwanee,GA,30024
Garrison Opticians,1922 Augusta St Ste 109,Greenville,SC,29605
Hopkins Eye Center,3921 S Hwy 14 Ste D,Greenville,SC,29615
My Optical,808 Highway 378 Ste A,Lexington,SC,29072
Eye On Gervais,1219 Lincoln St  ,Columbia,SC,29201
Eye On Gervais,1219 Lincoln St  ,Columbia,SC,29201
My Optical,808 Highway 378 Ste A,Lexington,SC,29072
Eyewear by David,927 University Dr  ,Lancaster,SC,29720
Eye On Gervais,1219 Lincoln St  ,Columbia,SC,29201
Eyewear by David,927 University Dr  ,Lancaster,SC,29720
Custom Eyes,1540 S Second St Ste 120,Wilmington,NC,28401
Custom Eyes,1540 S Second St Ste 120,Wilmington,NC,28401
Eye to Eye,1011- C Arendell St  ,Morehead  City,NC,28557
Custom Eyes,1540 S Second St Ste 120,Wilmington,NC,28401
Eye to Eye,1011- C Arendell St  ,Morehead  City,NC,28557
San Luis Obispo Eye Associates,689 Tank Farm Rd Ste 100,San Luis Obispo,CA,93401
Envision Optometry,1245 Broad St  ,San Luis Obispo,CA,93401
San Luis Obispo Eye Associates,689 Tank Farm Rd Ste 100,San Luis Obispo,CA,93401
Occhiali Fine Eyewear,1046 Coast Village Rd  ,Santa Barbara,CA,93108
Envision Optometry,1245 Broad St  ,San Luis Obispo,CA,93401
Topa Topa Optometry,1211 Maricopa Hwy Ste 101,Ojai,CA,93023
Topa Topa Optometry,1211 Maricopa Hwy Ste 101,Ojai,CA,93023
Occhiali Fine Eyewear,1046 Coast Village Rd  ,Santa Barbara,CA,93108
Ventura Optometric Vision Care,1280 So Victoria Ave  Ste 100,Ventura,CA,93003
Bakersfield Eye Care ,11320 Ming Ave Ste 360,Bakersfield,CA,93311
Corben Optometry,23206 Lyons Ave Ste 102,Newhall,CA,91321
Porter Ranch Optometry,11151 Tampa Ave  ,Porter Ranch,CA,91326
Murata Eyecare,3963 Cochran St Ste B,Simi Valley,CA,93063
Visual Processing Optometry,6345 Balboa Blvd Bldg 3 - Ste 250,Encino,CA,91316
La Canada Eye Care,1419 Foothill Blvd Tony Chahine OD,La Canada,CA,91011
Beeve Vision Center,1809 Verdugo Blvd  Ste 150,Glendale,CA,91208
Linden Optometry ,477 E. Colorado Blvd.  ,Pasadena,CA,91101
Charles J Korth Optometry,1 West California Blvd Ste 513,Pasadena,CA,91105
Eagle Rock Optometry,1605 Colorado Ave  ,Los Angeles,CA,90041
Corben Optometry,23206 Lyons Ave Ste 102,Newhall,CA,91321
South Pasadena Optometric Grou,729 Mission St Ste200,South Pasadena,CA,91030
Glendale Optometric Ctr,308 E Broadway  ,Glendale,CA,91205
Society of the Spectacle,4563 York Blvd  ,Los Angeles,CA,90041
Rummel Optical,1022 Willow Creek Rd Ste 200,Prescott,AZ,86301
Rummel Optical,1022 Willow Creek Rd Ste 200,Prescott,AZ,86301
Northern Arizona Optometry,420 N Humphreys Dr  ,Flagstaff,AZ,86001
Northern Arizona Optometry,420 N Humphreys Dr  ,Flagstaff,AZ,86001
Contact Lens Associates,4253 Montgomery Blvd Ne Ste 110,Albuquerque,NM,87109
Contact Lens Associates,4253 Montgomery Blvd Ne Ste 110,Albuquerque,NM,87109
Contact Lens Associates,4253 Montgomery Blvd Ne Ste 110,Albuquerque,NM,87109
Oculus Optical - Midtown,444 St Michaels D  ,Santa Fe,NM,87505
Oculus Optical - Downtown,125 West Water St  ,Santa Fe,NM,87501
Miller Vision Center,316 W Main Street  ,Norman,OK,73069
Massengale Eye Center,2828 N Broadway Ave  ,Moore,OK,73160
Miller Vision Center,316 W Main Street  ,Norman,OK,73069
Massengale Eye Center,2828 N Broadway Ave  ,Moore,OK,73160
Children’s Eye & Surgery of AR,11825 Hinson Rd Ste 103,Little Rock,AR,72212
Arkansas Eyecare Group,3005 Fountain Dr  ,Conway,AR,72034
Jones Eye Institute,4301 W Markham St Ste 523,Little Rock,AR,72205
Jones Eye Institute,4301 W Markham St Ste 523,Little Rock,AR,72205
Children’s Eye & Surgery of AR,11825 Hinson Rd Ste 103,Little Rock,AR,72212
Arkansas Eyecare Group,3005 Fountain Dr  ,Conway,AR,72034
Jones Eye Institute,4301 W Markham St Ste 523,Little Rock,AR,72205
Children’s Eye & Surgery of AR,11825 Hinson Rd Ste 103,Little Rock,AR,72212
"Dr. Julie T Caldwell, OD PA",201 S. Avalon St.  ,West Memphis,AR,72301
Eyewear Gallery,428 Perkins Extended  ,Memphis,TN,38117
Optical Images,1850 Poplar Crest Cove Suite 101,Memphis,TN,38119
Dr Steven R Shum,2109 West Street Ste 1,Germantown,TN,38138
Dr Steven R Shum,2109 West Street Ste 1,Germantown,TN,38138
Optical Images,1850 Poplar Crest Cove Suite 101,Memphis,TN,38119
Eyewear Gallery,428 Perkins Extended  ,Memphis,TN,38117
"Dr. Julie T Caldwell, OD PA",201 S. Avalon St.  ,West Memphis,AR,72301
Dr Steven R Shum,2109 West Street Ste 1,Germantown,TN,38138
Optical Images,1850 Poplar Crest Cove Suite 101,Memphis,TN,38119
Eyewear Gallery,428 Perkins Extended  ,Memphis,TN,38117
Pathway Eye Athens,110 College St Ste B,Athens,AL,35611
"R City Eye Care, Huntsville",4030  Balmoral Dr SW Ste A,Huntsville,AL,35801
"R City Eye Care, Huntsville",4030  Balmoral Dr SW Ste A,Huntsville,AL,35801
Pathway Eye Athens,110 College St Ste B,Athens,AL,35611
Epic Optical,189 W 8th St EPIC Optique LLC,Chattanooga,TN,37402
Eyear Optical,5969 Brainerd Rd  ,Chattanooga,TN,37421
"R City Eye Care, Huntsville",4030  Balmoral Dr SW Ste A,Huntsville,AL,35801
Oakmont Eye Care,2020 Keith St NW  ,Cleveland,TN,37311
Eyear Optical,5969 Brainerd Rd  ,Chattanooga,TN,37421
Epic Optical,189 W 8th St EPIC Optique LLC,Chattanooga,TN,37402
Oakmont Eye Care,2020 Keith St NW  ,Cleveland,TN,37311
Georgia Vision Center,344 Main St South  ,Hiawassee,GA,30546
Spectakular Boutique,29 Dawson Village Way S  ,Dawsonville,GA,30534
North Georgia Eye Clinics ,1485 Jesse Jewell Pkwy NE Ste100,Gainesville,GA,30501
Oakmont Eye Care,2020 Keith St NW  ,Cleveland,TN,37311
Georgia Vision Center,344 Main St South  ,Hiawassee,GA,30546
North Georgia Eye Clinics ,1485 Jesse Jewell Pkwy NE Ste100,Gainesville,GA,30501
Spectakular Boutique,29 Dawson Village Way S  ,Dawsonville,GA,30534
Haywood Family Eye Care,1604 Sulphur Springs Rd   ,Waynesville,NC,28786
North Georgia Eye Clinics ,5670 Old Winder Hwy  ,Braselton,GA,30517
Garrison Opticians,1922 Augusta St Ste 109,Greenville,SC,29605
Hopkins Eye Center,3921 S Hwy 14 Ste D,Greenville,SC,29615
Asheville Vision and Wellness,559 Long Shoals Rd Ste 100,Arden,NC,28704
Champion Eye Center,300 Julian Ln  ,Arden,NC,28704
Kilgo Eye Care OD,2 Walden Ridge Dr Ste 50,Asheville,NC,28803
Hopkins Eye Center,3921 S Hwy 14 Ste D,Greenville,SC,29615
Garrison Opticians,1922 Augusta St Ste 109,Greenville,SC,29605
Optique,1510 Onyx Ridge Ste 101,Fort Mill,SC,29708
"Brinton Family Eye Care, LLC",8445 Charlotte Hwy  ,Indian Land,SC,29707
Eyewear by David,927 University Dr  ,Lancaster,SC,29720
"Brinton Family Eye Care, LLC",8445 Charlotte Hwy  ,Indian Land,SC,29707
Optique,1510 Onyx Ridge Ste 101,Fort Mill,SC,29708
Piedmont Eye Care,8811 Blakeney Professional Dr Ste 100,Charlotte,NC,28277
Carolinas Vision Group,15640 Don Lochman Ln Ste C,Charlotte,NC,28277
Nuvue Optical CFEC ,12105 Copperway Ste 100,Charlotte,NC,28277
Eyewear by David,927 University Dr  ,Lancaster,SC,29720
Piedmont Eye Care,8811 Blakeney Professional Dr Ste 100,Charlotte,NC,28277
"Brinton Family Eye Care, LLC",8445 Charlotte Hwy  ,Indian Land,SC,29707
Carolinas Vision Group,15640 Don Lochman Ln Ste C,Charlotte,NC,28277
Nuvue Optical CFEC ,12105 Copperway Ste 100,Charlotte,NC,28277
Spectrum Family Eye Center,160 Fox Hollow Ct  ,Pinehurst,NC,28374
Eyemax Optical,90 Cherokee Rd Ste 1B,Pinehurst,NC,28374
Custom Eyes,1540 S Second St Ste 120,Wilmington,NC,28401
Spectrum Family Eye Center,160 Fox Hollow Ct  ,Pinehurst,NC,28374
Mitchell Eye Center,515 N Spence Ave  ,Goldsboro,NC,27534
Eyemax Optical,90 Cherokee Rd Ste 1B,Pinehurst,NC,28374
Custom Eyes,1540 S Second St Ste 120,Wilmington,NC,28401
Mitchell Eye Center,515 N Spence Ave  ,Goldsboro,NC,27534
Eye to Eye,1011- C Arendell St  ,Morehead  City,NC,28557
Eye to Eye,1011- C Arendell St  ,Morehead  City,NC,28557
Eye to Eye,1011- C Arendell St  ,Morehead  City,NC,28557
Envision Optometry,1245 Broad St  ,San Luis Obispo,CA,93401
San Luis Obispo Eye Associates,689 Tank Farm Rd Ste 100,San Luis Obispo,CA,93401
Envision Optometry,1245 Broad St  ,San Luis Obispo,CA,93401
San Luis Obispo Eye Associates,689 Tank Farm Rd Ste 100,San Luis Obispo,CA,93401
Bakersfield Eye Care ,11320 Ming Ave Ste 360,Bakersfield,CA,93311
Bakersfield Eye Care ,11320 Ming Ave Ste 360,Bakersfield,CA,93311
Eyes and Optics,11035 Lavender Hill Dr Ste 180,Las Vegas,NV,89135
Eye Studio at Anthem,2870 Bicentennial Pkwy Ste 130,Henderson,NV,89044
EyeCare About Vegas,2055 E Windmill Ln Ste 105,Las Vegas,NV,89123
Eyes and Optics,11035 Lavender Hill Dr Ste 180,Las Vegas,NV,89135
Vision Source West Sahara,8937 W Sahara Ave  ,Las Vegas,NV,89117
Eye Studio at Anthem,2870 Bicentennial Pkwy Ste 130,Henderson,NV,89044
EyeCare About Vegas,2055 E Windmill Ln Ste 105,Las Vegas,NV,89123
Vision Source West Sahara,8937 W Sahara Ave  ,Las Vegas,NV,89117
Personal Eyes Opticians,7260 W Lake Mead Blvd Ste 4,Las Vegas,NV,89128
Eyes and Optics,11035 Lavender Hill Dr Ste 180,Las Vegas,NV,89135
Northern Arizona Optometry,420 N Humphreys Dr  ,Flagstaff,AZ,86001
Northern Arizona Optometry,420 N Humphreys Dr  ,Flagstaff,AZ,86001
Contact Lens Associates,4253 Montgomery Blvd Ne Ste 110,Albuquerque,NM,87109
Contact Lens Associates,4253 Montgomery Blvd Ne Ste 110,Albuquerque,NM,87109
Oculus Optical - Midtown,444 St Michaels D  ,Santa Fe,NM,87505
Oculus Optical - Downtown,125 West Water St  ,Santa Fe,NM,87501
Oculus Optical - Midtown,444 St Michaels D  ,Santa Fe,NM,87505
Oculus Optical - Downtown,125 West Water St  ,Santa Fe,NM,87501
Contact Lens Associates,4253 Montgomery Blvd Ne Ste 110,Albuquerque,NM,87109
Oculus Optical - Downtown,125 West Water St  ,Santa Fe,NM,87501
Oculus Optical - Midtown,444 St Michaels D  ,Santa Fe,NM,87505
Precision Vision Of Edmond,200 W Covell Rd  ,Edmond,OK,73003
Massengale Eye Center,2828 N Broadway Ave  ,Moore,OK,73160
Miller Vision Center,316 W Main Street  ,Norman,OK,73069
Cockrell EyeCares Center,1711 W 6th Avenue  ,Stillwater,OK,74074
Precision Vision Of Edmond,200 W Covell Rd  ,Edmond,OK,73003
Massengale Eye Center,2828 N Broadway Ave  ,Moore,OK,73160
Cockrell EyeCares Center,1711 W 6th Avenue  ,Stillwater,OK,74074
Miller Vision Center,316 W Main Street  ,Norman,OK,73069
Empire Optical,3220 East 21St St Ste 100,Tulsa,OK,74114
Cockrell EyeCares Center,1711 W 6th Avenue  ,Stillwater,OK,74074
Empire Optical,3220 East 21St St Ste 100,Tulsa,OK,74114
Mcdonald Eye Services,3689 N Steele Blvd  ,Fayetteville,AR,72703
Uptown Eyes,100 E. Joyce Blvd Ste 104,Fayetteville,AR,72703
Boozmanhof Optical,3737 West Walnut  ,Rogers,AR,72756
Mcdonald Eye Services,3689 N Steele Blvd  ,Fayetteville,AR,72703
Uptown Eyes,100 E. Joyce Blvd Ste 104,Fayetteville,AR,72703
Boozmanhof Optical,3737 West Walnut  ,Rogers,AR,72756
Arkansas Eyecare Group,3005 Fountain Dr  ,Conway,AR,72034
Arkansas Eyecare Group,3005 Fountain Dr  ,Conway,AR,72034
Children’s Eye & Surgery of AR,11825 Hinson Rd Ste 103,Little Rock,AR,72212
Progressive Eye Center,197 Hospital Drive Ste A,Cherokee Village,AR,72529
Jones Eye Institute,4301 W Markham St Ste 523,Little Rock,AR,72205
Progressive Eye Center,197 Hospital Drive Ste A,Cherokee Village,AR,72529
"Dr. Julie T Caldwell, OD PA",201 S. Avalon St.  ,West Memphis,AR,72301
Eyewear Gallery,428 Perkins Extended  ,Memphis,TN,38117
Optical Images,1850 Poplar Crest Cove Suite 101,Memphis,TN,38119
Dr Steven R Shum,2109 West Street Ste 1,Germantown,TN,38138
Eyewear Gallery,428 Perkins Extended  ,Memphis,TN,38117
Optical Images,1850 Poplar Crest Cove Suite 101,Memphis,TN,38119
Dr Steven R Shum,2109 West Street Ste 1,Germantown,TN,38138
"Dr. Julie T Caldwell, OD PA",201 S. Avalon St.  ,West Memphis,AR,72301
Dr Steven R Shum,2109 West Street Ste 1,Germantown,TN,38138
Optical Images,1850 Poplar Crest Cove Suite 101,Memphis,TN,38119
Eyewear Gallery,428 Perkins Extended  ,Memphis,TN,38117
Christopher Optical,100 Covey Dr Ste 101,Franklin,TN,37067
Christopher Optical,4091 Mallory Ln Ste 104,Franklin,TN,37067
Berry Eyecare & Optical,4205 Hillsboro Pike Ste 204,Nashville,TN,37215
Nashville Eye Center Optical,4515 Harding Pike Ste 201,Nashville,TN,37205
Coley & Coley Family Eyecare,129 E Clark Blvd  ,Murphreesboro,TN,37130
Christopher Optical,100 Covey Dr Ste 101,Franklin,TN,37067
Christopher Optical,4091 Mallory Ln Ste 104,Franklin,TN,37067
Berry Eyecare & Optical,4205 Hillsboro Pike Ste 204,Nashville,TN,37215
Coley & Coley Family Eyecare,129 E Clark Blvd  ,Murphreesboro,TN,37130
Epic Optical,189 W 8th St EPIC Optique LLC,Chattanooga,TN,37402
Eyear Optical,5969 Brainerd Rd  ,Chattanooga,TN,37421
Cumberland Eye Care,57 Fairfield  ,Crossville,TN,38558
Cumberland Eye Care,57 Fairfield  ,Crossville,TN,38558
Oakmont Eye Care,2020 Keith St NW  ,Cleveland,TN,37311
Eyear Optical,5969 Brainerd Rd  ,Chattanooga,TN,37421
Epic Optical,189 W 8th St EPIC Optique LLC,Chattanooga,TN,37402
"Campbell, Cunningham, Taylor",1124 East Weisgarber Rd. Ste 102,Knoxville,TN,37909
Eye Center of Oak Ridge,90 Vermont Ave  ,Oak Ridge,TN,37830
Cumberland Eye Care,57 Fairfield  ,Crossville,TN,38558
Oakmont Eye Care,2020 Keith St NW  ,Cleveland,TN,37311
Haywood Family Eye Care,1604 Sulphur Springs Rd   ,Waynesville,NC,28786
"Campbell, Cunningham, Taylor",1124 East Weisgarber Rd. Ste 102,Knoxville,TN,37909
Asheville Vision and Wellness,559 Long Shoals Rd Ste 100,Arden,NC,28704
L'Optique Inc,30 Wall St  ,Asheville,NC,28801
Georgia Vision Center,344 Main St South  ,Hiawassee,GA,30546
Champion Eye Center,300 Julian Ln  ,Arden,NC,28704
Tunnel Vision,4 S Tunnel Rd. Ste 800,Asheville,NC,28805
L'Optique Inc,30 Wall St  ,Asheville,NC,28801
Tunnel Vision,4 S Tunnel Rd. Ste 800,Asheville,NC,28805
Kilgo Eye Care OD,2 Walden Ridge Dr Ste 50,Asheville,NC,28803
Asheville Vision and Wellness,559 Long Shoals Rd Ste 100,Arden,NC,28704
Champion Eye Center,300 Julian Ln  ,Arden,NC,28704
Tunnel Vision,4 S Tunnel Rd. Ste 800,Asheville,NC,28805
Kilgo Eye Care OD,2 Walden Ridge Dr Ste 50,Asheville,NC,28803
Champion Eye Center,300 Julian Ln  ,Arden,NC,28704
L'Optique Inc,30 Wall St  ,Asheville,NC,28801
Blue Ridge Vision,1180 A-1 Blowing Rock Rd  ,Boone,NC,28607
Nuvue Optical CFEC ,2424 W Mallard Creek Church Rd  ,Charlotte,NC,28262
Cabarrus Eye Center,201 Le Philip Court NE  ,Concord,NC,28025
Innovative Eye Care,1710 Kenilworth Ave Ste 210,Charlotte,NC,28203
Salisbury Eyecare & Eyewear,228 W Council St  ,Salisbury,NC,28144
Salisbury Eyecare & Eyewear,228 W Council St  ,Salisbury,NC,28144
Cabarrus Eye Center,201 Le Philip Court NE  ,Concord,NC,28025
C Distinctive Eyewear,302 S Stratford Rd Ste B,Winston Salem,NC,27103
Nuvue Optical CFEC ,2424 W Mallard Creek Church Rd  ,Charlotte,NC,28262
Eyemax Optical,90 Cherokee Rd Ste 1B,Pinehurst,NC,28374
Spectrum Family Eye Center,160 Fox Hollow Ct  ,Pinehurst,NC,28374
Quantum Eye Care,861 Willow Dr  ,Chapel Hill,NC,27514
Specs,8202 Renaissance Pkwy Ste 104,Durham,NC,27713
The Optical Dispensary,3320 Executive Dr  ,Raleigh,NC,27609
The Spectacle,4209 Lassiter Mill Road Ste 110,Raleigh,NC,27609
Eye Care Premier,101 Sawmill Rd  ,Raleigh,NC,27615
Stonehenge Vision Source,7200 Creedmoor Rd Ste 100  ,Raleigh,NC,27613
Mitchell Eye Center,515 N Spence Ave  ,Goldsboro,NC,27534
Envolve Optical,1118 Falls Rd  ,Rocky Mount,NC,27804
The Optical Dispensary,3320 Executive Dr  ,Raleigh,NC,27609
The Spectacle,4209 Lassiter Mill Road Ste 110,Raleigh,NC,27609
Eye Care Premier,101 Sawmill Rd  ,Raleigh,NC,27615
Envolve Optical,1118 Falls Rd  ,Rocky Mount,NC,27804
Mitchell Eye Center,515 N Spence Ave  ,Goldsboro,NC,27534
Eye Q,1101 Pacific Ave Ste E,Santa Cruz,CA,95060
Craig Fellers OD,550 Water St Ste J5,Santa Cruz,CA,95060
North Coast Vision Optometry,804 41st Avenue  ,Santa Cruz,CA,95062
North Coast Vision Optometry,804 41st Avenue  ,Santa Cruz,CA,95062
Eye Q,1101 Pacific Ave Ste E,Santa Cruz,CA,95060
Craig Fellers OD,550 Water St Ste J5,Santa Cruz,CA,95060
Site For Sore Eyes,53 N Santa Cruz Ave  ,Los Gatos,CA,95030
Spectrum Eye Physicians,431 Monterey Ave Ste 3,Los Gatos,CA,95030
Eyes and Optics,11035 Lavender Hill Dr Ste 180,Las Vegas,NV,89135
Vision Source West Sahara,8937 W Sahara Ave  ,Las Vegas,NV,89117
Personal Eyes Opticians,7260 W Lake Mead Blvd Ste 4,Las Vegas,NV,89128
Personal Eyes Opticians,7260 W Lake Mead Blvd Ste 4,Las Vegas,NV,89128
Eyes and Optics,11035 Lavender Hill Dr Ste 180,Las Vegas,NV,89135
Vision Source West Sahara,8937 W Sahara Ave  ,Las Vegas,NV,89117
EyeCare About Vegas,2055 E Windmill Ln Ste 105,Las Vegas,NV,89123
EyeCare About Vegas,2055 E Windmill Ln Ste 105,Las Vegas,NV,89123
Personal Eyes Opticians,7260 W Lake Mead Blvd Ste 4,Las Vegas,NV,89128
Vision Source West Sahara,8937 W Sahara Ave  ,Las Vegas,NV,89117
Eye Studio at Anthem,2870 Bicentennial Pkwy Ste 130,Henderson,NV,89044
Dixie Optical,1495 S Black Ridge Dr  A270,St George,UT,84770
Dixie Optical,1495 S Black Ridge Dr  A270,St George,UT,84770
Eyecare Management,1185 S Camino Del Rio Ste 175,Durango,CO,81303
Oculus Optical - Downtown,125 West Water St  ,Santa Fe,NM,87501
Oculus Optical - Downtown,125 West Water St  ,Santa Fe,NM,87501
Oculus Optical - Midtown,444 St Michaels D  ,Santa Fe,NM,87505
Cockrell EyeCares Center,1711 W 6th Avenue  ,Stillwater,OK,74074
Precision Vision Of Edmond,200 W Covell Rd  ,Edmond,OK,73003
Cockrell EyeCares Center,1711 W 6th Avenue  ,Stillwater,OK,74074
Precision Vision Of Edmond,200 W Covell Rd  ,Edmond,OK,73003
Empire Optical,3220 East 21St St Ste 100,Tulsa,OK,74114
Empire Optical,3220 East 21St St Ste 100,Tulsa,OK,74114
Cockrell EyeCares Center,1711 W 6th Avenue  ,Stillwater,OK,74074
Empire Optical,3220 East 21St St Ste 100,Tulsa,OK,74114
Boozmanhof Optical,3737 West Walnut  ,Rogers,AR,72756
Uptown Eyes,100 E. Joyce Blvd Ste 104,Fayetteville,AR,72703
Mcdonald Eye Services,3689 N Steele Blvd  ,Fayetteville,AR,72703
Boozmanhof Optical,3737 West Walnut  ,Rogers,AR,72756
Uptown Eyes,100 E. Joyce Blvd Ste 104,Fayetteville,AR,72703
Mcdonald Eye Services,3689 N Steele Blvd  ,Fayetteville,AR,72703
Progressive Eye Center,197 Hospital Drive Ste A,Cherokee Village,AR,72529
Progressive Eye Center,197 Hospital Drive Ste A,Cherokee Village,AR,72529
Progressive Eye Center,197 Hospital Drive Ste A,Cherokee Village,AR,72529
Nashville Eye Center Optical,4515 Harding Pike Ste 201,Nashville,TN,37205
Visualeyes Optical Boutique,2400 Patterson St Ste 201,Nashville,TN,37203
Music City Optical,25 Music Square East  ,Nashville,TN,37203
Berry Eyecare & Optical,4205 Hillsboro Pike Ste 204,Nashville,TN,37215
Music City Optical,25 Music Square East  ,Nashville,TN,37203
Visualeyes Optical Boutique,2400 Patterson St Ste 201,Nashville,TN,37203
Nashville Eye Center Optical,4515 Harding Pike Ste 201,Nashville,TN,37205
Berry Eyecare & Optical,4205 Hillsboro Pike Ste 204,Nashville,TN,37215
Coley & Coley Family Eyecare,129 E Clark Blvd  ,Murphreesboro,TN,37130
Music City Optical,25 Music Square East  ,Nashville,TN,37203
Cumberland Eye Care,57 Fairfield  ,Crossville,TN,38558
Visualeyes Optical Boutique,2400 Patterson St Ste 201,Nashville,TN,37203
Cumberland Eye Care,57 Fairfield  ,Crossville,TN,38558
Eye Center of Oak Ridge,90 Vermont Ave  ,Oak Ridge,TN,37830
Eye Center of Oak Ridge,90 Vermont Ave  ,Oak Ridge,TN,37830
"Campbell, Cunningham, Taylor",1124 East Weisgarber Rd. Ste 102,Knoxville,TN,37909
Cumberland Eye Care,57 Fairfield  ,Crossville,TN,38558
"Campbell, Cunningham, Taylor",1124 East Weisgarber Rd. Ste 102,Knoxville,TN,37909
Eye Center of Oak Ridge,90 Vermont Ave  ,Oak Ridge,TN,37830
Johnson City Eye Clinic,110 Med Tech Pkwy Ste 1,Johnson City,TN,37604
Johnson City Eye Clinic,110 Med Tech Pkwy Ste 1,Johnson City,TN,37604
Blue Ridge Vision,1180 A-1 Blowing Rock Rd  ,Boone,NC,28607
L'Optique Inc,30 Wall St  ,Asheville,NC,28801
Tunnel Vision,4 S Tunnel Rd. Ste 800,Asheville,NC,28805
Blue Ridge Vision,1180 A-1 Blowing Rock Rd  ,Boone,NC,28607
Johnson City Eye Clinic,110 Med Tech Pkwy Ste 1,Johnson City,TN,37604
Blue Ridge Vision,1180 A-1 Blowing Rock Rd  ,Boone,NC,28607
C Distinctive Eyewear,302 S Stratford Rd Ste B,Winston Salem,NC,27103
Salisbury Eyecare & Eyewear,228 W Council St  ,Salisbury,NC,28144
C Distinctive Eyewear,302 S Stratford Rd Ste B,Winston Salem,NC,27103
Greensboro Ophthalmology,8 N. Pointe Court  ,Greensboro,NC,27408
Miller Vision Specialties,2616  A Lawndale Dr  ,Greensboro,NC,27408
House of Eyes,2222 Patterson Street Ste A,Greensboro,NC,27407
Greensboro Ophthalmology,8 N. Pointe Court  ,Greensboro,NC,27408
Miller Vision Specialties,2616  A Lawndale Dr  ,Greensboro,NC,27408
House of Eyes,2222 Patterson Street Ste A,Greensboro,NC,27407
Upchurch Optical,5108 N. Roxboro Rd.  ,Durham,NC,27704
Upchurch Optical,5108 N. Roxboro Rd.  ,Durham,NC,27704
One Two See Optical,501 Lombardy St.  ,South Hill,VA,23970
Stonehenge Vision Source,7200 Creedmoor Rd Ste 100  ,Raleigh,NC,27613
Eye Care Premier,101 Sawmill Rd  ,Raleigh,NC,27615
One Two See Optical,501 Lombardy St.  ,South Hill,VA,23970
Envolve Optical,1118 Falls Rd  ,Rocky Mount,NC,27804
Eye Care Premier,101 Sawmill Rd  ,Raleigh,NC,27615
The Optical Dispensary,3320 Executive Dr  ,Raleigh,NC,27609
Stonehenge Vision Source,7200 Creedmoor Rd Ste 100  ,Raleigh,NC,27613
The Spectacle,4209 Lassiter Mill Road Ste 110,Raleigh,NC,27609
Eastern Virginia Eye,1108 Cedar Road  ,Chesapeake,VA,23322
Selden Optometry,209 Granby St  ,Norfolk,VA,23510
Gilbert Eyecare,220 W Brambleton Suite 111,Norfolk,VA,23510
Envolve Optical,1118 Falls Rd  ,Rocky Mount,NC,27804
Eastern Virginia Eye,1108 Cedar Road  ,Chesapeake,VA,23322
Selden Optometry,209 Granby St  ,Norfolk,VA,23510
Gilbert Eyecare,220 W Brambleton Suite 111,Norfolk,VA,23510
Gilbert Eyecare,1547 Laskin Road  ,Virginia Beach,VA,23451
Gilbert Eyecare,1547 Laskin Road  ,Virginia Beach,VA,23451
Eastern Virginia Eye,1108 Cedar Road  ,Chesapeake,VA,23322
Selden Optometry,209 Granby St  ,Norfolk,VA,23510
Gilbert Eyecare,220 W Brambleton Suite 111,Norfolk,VA,23510
HMB Optometry Family Eye Care,80 N Cabrillo Hwy  Ste J,Half Moon Bay,CA,94019
HMB Optometry Family Eye Care,80 N Cabrillo Hwy  Ste J,Half Moon Bay,CA,94019
Tiernan Opticians,1225 San Carlos Ave.  ,San Carlos,CA,94070
All Eyes on You Optometry Inc,336 El Camino Real  ,San Carlos,CA,94070
Optometric Center for Family ,57 El Camino Real  ,San Carlos,CA,94070
Avant Optometry,811 Santa Cruz Ave  ,Menlo Park,CA,94025
Site for Sore Eyes,115 E 3rd Ave  ,San Mateo,CA,94401
Foster City Eye Care,999 Edgewater Blvd Ste C,Foster City,CA,94404
Perfect Pair Optometry,1445 Foxworthy Ave Ste 60,San Jose,CA,95118
Visual Eyes Optometry,1172 Lincoln Ave  ,San Jose,CA,95125
Site For Sore Eyes,53 N Santa Cruz Ave  ,Los Gatos,CA,95030
Spectrum Eye Physicians,431 Monterey Ave Ste 3,Los Gatos,CA,95030
Kenneth E Sweeney OD,825 Pollard Rd Ste 208,Los Gatos,CA,95032
Eye Medical Clinic,220 Meridian Ave Ste 1,San Jose,CA,95126
Plett Family Optometry,1001 Colorado Avenue  ,Turlock,CA,95380
Perfect Pair Optometry,1445 Foxworthy Ave Ste 60,San Jose,CA,95118
Visual Eyes Optometry,1172 Lincoln Ave  ,San Jose,CA,95125
Eye Medical Clinic,220 Meridian Ave Ste 1,San Jose,CA,95126
Plett Family Optometry,1001 Colorado Avenue  ,Turlock,CA,95380
Dixie Optical,1495 S Black Ridge Dr  A270,St George,UT,84770
Dixie Optical,1495 S Black Ridge Dr  A270,St George,UT,84770
Dixie Optical,1495 S Black Ridge Dr  A270,St George,UT,84770
Eyecare Management,1185 S Camino Del Rio Ste 175,Durango,CO,81303
Animas Eye Care,1845 Main Ave  ,Durango,CO,81301
Eyecare Management,1185 S Camino Del Rio Ste 175,Durango,CO,81303
Animas Eye Care,1845 Main Ave  ,Durango,CO,81301
Evansville Eyecare Associates,213 Main St  ,Evansville,IN,47708
Altman Eye Center Prestonburg,215 South Lake Drive Ste C,Prestonsburg,KY,41653
Altman Eye Center,147 Hibbard Street   ,Pikeville,KY,41501
Altman Eye Center,147 Hibbard Street   ,Pikeville,KY,41501
Altman Eye Center Prestonburg,215 South Lake Drive Ste C,Prestonsburg,KY,41653
Johnson City Eye Clinic,110 Med Tech Pkwy Ste 1,Johnson City,TN,37604
Appalachian Eye Care,324 Oakvale Road Ste 100,Princeton,WV,24740
Altman Eye Center,147 Hibbard Street   ,Pikeville,KY,41501
Appalachian Eye Care,324 Oakvale Road Ste 100,Princeton,WV,24740
Blacksburg Eye Associates,1440 S Main St Ste 100,Blacksburg,VA,24060
Blacksburg Eye Associates,1440 S Main St Ste 100,Blacksburg,VA,24060
Appalachian Eye Care,324 Oakvale Road Ste 100,Princeton,WV,24740
Blacksburg Eye Associates,1440 S Main St Ste 100,Blacksburg,VA,24060
One Two See Optical,501 Lombardy St.  ,South Hill,VA,23970
Keller And George Optical,1149 Millmont St  ,Charlottesville,VA,22903
Family Vision Care of Richmond,4114  Innslake Dr  ,Glen Allen,VA,23060
One Two See Optical,501 Lombardy St.  ,South Hill,VA,23970
Family Vision Care of Richmond,4114  Innslake Dr  ,Glen Allen,VA,23060
Gilbert Eyecare,220 W Brambleton Suite 111,Norfolk,VA,23510
Selden Optometry,209 Granby St  ,Norfolk,VA,23510
Eastern Virginia Eye,1108 Cedar Road  ,Chesapeake,VA,23322
Gilbert Eyecare,220 W Brambleton Suite 111,Norfolk,VA,23510
Selden Optometry,209 Granby St  ,Norfolk,VA,23510
Gilbert Eyecare,1547 Laskin Road  ,Virginia Beach,VA,23451
Eastern Virginia Eye,1108 Cedar Road  ,Chesapeake,VA,23322
Gilbert Eyecare,1547 Laskin Road  ,Virginia Beach,VA,23451
Gilbert Eyecare,220 W Brambleton Suite 111,Norfolk,VA,23510
Selden Optometry,209 Granby St  ,Norfolk,VA,23510
Eastern Virginia Eye,1108 Cedar Road  ,Chesapeake,VA,23322
Uber Optics,19 Kentucky St  ,Petaluma,CA,94952
Marin Optometry,158 Throckmorton Ave  ,Mill Valley,CA,94941
Oliva Optical Co,1338 Fourth Street  ,San Rafael,CA,94901
20/20 Optical,1127 4th St  ,San Rafael,CA,94901
Luxton Optical Inc ,212 Bon Air Shopping Ctr  ,Greenbrae,CA,94904
Empire Optometry,800 4th Street  ,Santa Rosa,CA,95404
Rims And Goggles,606 Strawberry Village  ,Mill Valley,CA,94941
Sonoma Eyeworks An Optometric,534 Larkfield Ctr  ,Santa Rosa,CA,95403
Oliva Optical Co,1338 Fourth Street  ,San Rafael,CA,94901
20/20 Optical,1127 4th St  ,San Rafael,CA,94901
Luxton Optical Inc ,212 Bon Air Shopping Ctr  ,Greenbrae,CA,94904
Marin Optometry,158 Throckmorton Ave  ,Mill Valley,CA,94941
Rims And Goggles,606 Strawberry Village  ,Mill Valley,CA,94941
Ronald S. Shigio,325 N Wiget Lane Ste 120,Walnut Creek,CA,94598
Lamorinda Optometry,3586 Mt Diablo Blvd Ste B ,Lafayette,CA,94549
Orinda Optometry Gro,20 Orinda Way  ,Orinda,CA,94563
Montclair Optical,2067 Antioch Court  ,Oakland,CA,94611
UC Berkeley School Opt,200 Minor Hall  ,Berkeley,CA,94720
Eye Love Optometry,2704 Pinole Valley Rd  ,Pinole,CA,94564
Focal Point,2638 Ashby Ave  ,Berkeley,CA,94705
Rockridge Optometry,5321 College Ave  ,Oakland,CA,94618
Precision Vision,2120 Shattuck Ave  ,Berkeley,CA,94704
Flores Optometry Inc,1332 E 14th St  ,San Leandro,CA,94577
Eye Care Optometry,3341 Lakeshore Ave  ,Oakland,CA,94610
Grand Lake Optometry,3330 Grand Avenue  ,Oakland,CA,94610
Plett Family Optometry,1001 Colorado Avenue  ,Turlock,CA,95380
Site for Sore Eyes,2563 Fair Oaks Blvd   ,Sacremento,CA,95825
Nick Gutierrez OD,2615 Capitol Ave  ,Sacramento,CA,95816
Sacramento Optometric Group,400 O Street Ste 102,Sacramento,CA,95814
Eyes On J Optometry,808 J Street  ,Sacramento,CA,95814
Plett Family Optometry,1001 Colorado Avenue  ,Turlock,CA,95380
Animas Eye Care,1845 Main Ave  ,Durango,CO,81301
Eyecare Management,1185 S Camino Del Rio Ste 175,Durango,CO,81303
Animas Eye Care,1845 Main Ave  ,Durango,CO,81301
Eyecare Management,1185 S Camino Del Rio Ste 175,Durango,CO,81303
Eye Care Center of Co Springs,110 South Weber St  ,Colorado Springs,CO,80903
Evansville Eyecare Associates,213 Main St  ,Evansville,IN,47708
Evansville Eyecare Associates,213 Main St  ,Evansville,IN,47708
Evansville Eyecare Associates,213 Main St  ,Evansville,IN,47708
Altman Eye Center Prestonburg,215 South Lake Drive Ste C,Prestonsburg,KY,41653
Altman Eye Center,147 Hibbard Street   ,Pikeville,KY,41501
Altman Eye Center Prestonburg,215 South Lake Drive Ste C,Prestonsburg,KY,41653
Altman Eye Center,147 Hibbard Street   ,Pikeville,KY,41501
Dr Walter Ramsey,1301 Lee St East  ,Charleston,WV,25301
Dr Walter Ramsey,1301 Lee St East  ,Charleston,WV,25301
Altman Eye Center,147 Hibbard Street   ,Pikeville,KY,41501
Altman Eye Center Prestonburg,215 South Lake Drive Ste C,Prestonsburg,KY,41653
Appalachian Eye Care,324 Oakvale Road Ste 100,Princeton,WV,24740
Dr Walter Ramsey,1301 Lee St East  ,Charleston,WV,25301
Appalachian Eye Care,324 Oakvale Road Ste 100,Princeton,WV,24740
Blacksburg Eye Associates,1440 S Main St Ste 100,Blacksburg,VA,24060
Keller And George Optical,1149 Millmont St  ,Charlottesville,VA,22903
Keller And George Optical,1149 Millmont St  ,Charlottesville,VA,22903
Family Vision Care of Richmond,4114  Innslake Dr  ,Glen Allen,VA,23060
Family Vision Care of Richmond,4114  Innslake Dr  ,Glen Allen,VA,23060
Sight Studio,829 Caroline St  ,Fredericksburg,VA,22401
Keller And George Optical,1149 Millmont St  ,Charlottesville,VA,22903
Occoquan Optical,125 Mill Street Ste 12,Occoquan,VA,22125
Sight Studio,829 Caroline St  ,Fredericksburg,VA,22401
Family Vision Care of Richmond,4114  Innslake Dr  ,Glen Allen,VA,23060
Occoquan Optical,125 Mill Street Ste 12,Occoquan,VA,22125
Northern Virginia Doctors of O,1632-A Belle View Blvd  ,Alexandria,VA,22307
Lynette Kline OD,510 Cypress St Ste A,Fort Bragg,CA,95437
Sonoma Eyeworks An Optometric,534 Larkfield Ctr  ,Santa Rosa,CA,95403
Empire Optometry,800 4th Street  ,Santa Rosa,CA,95404
Lynette Kline OD,510 Cypress St Ste A,Fort Bragg,CA,95437
Uber Optics,19 Kentucky St  ,Petaluma,CA,94952
Sonoma Eyeworks An Optometric,534 Larkfield Ctr  ,Santa Rosa,CA,95403
Empire Optometry,800 4th Street  ,Santa Rosa,CA,95404
Eye Care Center Of Napa Valley,895 Trancas St Ste A,Napa,CA,94558
"Zuniga Optical, Inc.",770 Main St  ,Napa,CA,94559
Uber Optics,19 Kentucky St  ,Petaluma,CA,94952
Baker Optometry,2019 Anderson Rd Ste C,Davis,CA,95616
Helmus Optometry,353 2nd St  ,Davis,CA,95616
Sacramento Optometric Group,400 O Street Ste 102,Sacramento,CA,95814
Eyes On J Optometry,808 J Street  ,Sacramento,CA,95814
Nick Gutierrez OD,2615 Capitol Ave  ,Sacramento,CA,95816
Granite Pointe Eye Care,9221 Sierra College Blvd Ste 130,Roseville,CA,95661
Site for Sore Eyes,2563 Fair Oaks Blvd   ,Sacremento,CA,95825
Nick Gutierrez OD,2615 Capitol Ave  ,Sacramento,CA,95816
Eyes On J Optometry,808 J Street  ,Sacramento,CA,95814
Sacramento Optometric Group,400 O Street Ste 102,Sacramento,CA,95814
North Lake Eyecare Optometry,1225 North Lake Blvd  ,Tahoe City,CA,96145
Tahoe Sierra Eye & Optical,10956 Donner Pass Rd Ste 120,Truckee,CA,96161
"Wilson, Conkey and Associates,",620 Sierra Rose Dr  ,Reno,NV,89511
Eric R Kroll & Lighthouse,118 California Ave  ,Reno,NV,89509
Granite Pointe Eye Care,9221 Sierra College Blvd Ste 130,Roseville,CA,95661
North Lake Eyecare Optometry,1225 North Lake Blvd  ,Tahoe City,CA,96145
"Wilson, Conkey and Associates,",620 Sierra Rose Dr  ,Reno,NV,89511
Eric R Kroll & Lighthouse,118 California Ave  ,Reno,NV,89509
Tahoe Sierra Eye & Optical,10956 Donner Pass Rd Ste 120,Truckee,CA,96161
Eye Care Center of Co Springs,110 South Weber St  ,Colorado Springs,CO,80903
Rockrimmon Vision Clinic,6005 Delmonico Drive Ste 140,Colorado Springs,CO,80919
Eye Consultants Of Colorado,27122 Main St Ste 220,Conifer,CO,80433
Eye Care Center of Co Springs,110 South Weber St  ,Colorado Springs,CO,80903
Rockrimmon Vision Clinic,6005 Delmonico Drive Ste 140,Colorado Springs,CO,80919
Black Diamond Eyecare Castle P,250 Max Dr Ste 101,Castle Pines,CO,80108
Eye Consultants Of Colorado,27122 Main St Ste 220,Conifer,CO,80433
Mountain Vista Eyecare,7761 Shaffer Pkwy Ste 200,Littleton,CO,80127
Southglenn Eyecare,6650 S Vine St Ste 160,Centennial,CO,80121
Eye Care Center of Co Springs,110 South Weber St  ,Colorado Springs,CO,80903
Rockrimmon Vision Clinic,6005 Delmonico Drive Ste 140,Colorado Springs,CO,80919
Black Diamond Eyecare Castle P,250 Max Dr Ste 101,Castle Pines,CO,80108
Kansas City Eye Clinic,7504 Antioch Rd  ,Overland Park,KS,66204
Lee Summit Family Ey,519 SW 3rd St Ste A,Lee's Summit,MO,64063
Kansas City Eye Clinic,7504 Antioch Rd  ,Overland Park,KS,66204
Lee Summit Family Ey,519 SW 3rd St Ste A,Lee's Summit,MO,64063
Lee Summit Family Ey,519 SW 3rd St Ste A,Lee's Summit,MO,64063
Kansas City Eye Clinic,7504 Antioch Rd  ,Overland Park,KS,66204
Precision Eye Group,322 S Woodscrest Dr  ,Bloomington,IN,47401
Evansville Eyecare Associates,213 Main St  ,Evansville,IN,47708
Precision Eye Group,322 S Woodscrest Dr  ,Bloomington,IN,47401
Warner Eyecare,1642 Olive Branch Parke Ln Ste 1000,Greenwood,IN,46143
Precision Eye Group,322 S Woodscrest Dr  ,Bloomington,IN,47401
Warner Eyecare,1642 Olive Branch Parke Ln Ste 1000,Greenwood,IN,46143
Greenwood Vision Care,622 N Madison Ave  Ste 9,Greenwood,IN,46142
Vision One,2174 Dixie Highway  ,Ft Mitchell,KY,41017
Ritter Hagee Optometry,9912 Carver Rd Ste 101,Cincinnati,OH,45242
Innovative Vision,9711 Montgomery Rd  ,Cincinnati,OH,45242
Vision One,2174 Dixie Highway  ,Ft Mitchell,KY,41017
Innovative Vision,9711 Montgomery Rd  ,Cincinnati,OH,45242
Ritter Hagee Optometry,9912 Carver Rd Ste 101,Cincinnati,OH,45242
Innovative Vision,9711 Montgomery Rd  ,Cincinnati,OH,45242
Ritter Hagee Optometry,9912 Carver Rd Ste 101,Cincinnati,OH,45242
Dr Walter Ramsey,1301 Lee St East  ,Charleston,WV,25301
Dr Walter Ramsey,1301 Lee St East  ,Charleston,WV,25301
Dr Walter Ramsey,1301 Lee St East  ,Charleston,WV,25301
Keller And George Optical,1149 Millmont St  ,Charlottesville,VA,22903
Occoquan Optical,125 Mill Street Ste 12,Occoquan,VA,22125
Village Eye Center,1471 Chainbridge Rd  ,Mclean,VA,22101
Chevy Chase Eye Design,11611 Glen Rd  ,Potomac,MD,20854
Oliver Opticians,5776 Dow Ave  ,Alexandria,VA,22304
Northern Virginia Doctors of O,1632-A Belle View Blvd  ,Alexandria,VA,22307
Oliver Opticians,5776 Dow Ave  ,Alexandria,VA,22304
Apex Optical 2,2001 L St NW  ,Washington,DC,20036
Voorthuis Optical - Foxhall Sq,3301 New Mexico Ave Nw  ,Washington,DC,20016
Apex Optical,4200 Wisconsin Ave NW  ,Washington,DC,20016
Voorthuis Optical - Barlow,5454 Wisconsin Ave  ,Chevy Chase,MD,20815
Brilliant Optical,1410 Forest Dr Ste 1,Annapolis,MD,21403
Annapolis Opticians,1918 Forest Drive  ,Annapolis,MD,21401
Anne Arundel Family Eye Care,820 Bestgate Rd Ste 1C,Annapolis,MD,21401
Panoptic Eye Care,1127 MD Rte 3 N Ste 104,Gambrills,MD,21054
Brilliant Optical,1410 Forest Dr Ste 1,Annapolis,MD,21403
Annapolis Opticians,1918 Forest Drive  ,Annapolis,MD,21401
Lynette Kline OD,510 Cypress St Ste A,Fort Bragg,CA,95437
Lynette Kline OD,510 Cypress St Ste A,Fort Bragg,CA,95437
Tahoe Sierra Eye & Optical,10956 Donner Pass Rd Ste 120,Truckee,CA,96161
North Lake Eyecare Optometry,1225 North Lake Blvd  ,Tahoe City,CA,96145
Granite Pointe Eye Care,9221 Sierra College Blvd Ste 130,Roseville,CA,95661
Tahoe Sierra Eye & Optical,10956 Donner Pass Rd Ste 120,Truckee,CA,96161
Eric R Kroll & Lighthouse,118 California Ave  ,Reno,NV,89509
"Wilson, Conkey and Associates,",620 Sierra Rose Dr  ,Reno,NV,89511
North Lake Eyecare Optometry,1225 North Lake Blvd  ,Tahoe City,CA,96145
Eric R Kroll & Lighthouse,118 California Ave  ,Reno,NV,89509
"Wilson, Conkey and Associates,",620 Sierra Rose Dr  ,Reno,NV,89511
Tahoe Sierra Eye & Optical,10956 Donner Pass Rd Ste 120,Truckee,CA,96161
North Lake Eyecare Optometry,1225 North Lake Blvd  ,Tahoe City,CA,96145
Winter Park Optical,45 County Rd 804 Ste 150,Fraser,CO,80442
Winter Park Optical,45 County Rd 804 Ste 150,Fraser,CO,80442
Eye Consultants Of Colorado,27122 Main St Ste 220,Conifer,CO,80433
A to Z Eye Care,13402 W Coal Mine Ave Ste 120,Littleton,CO,80127
Mountain Vista Eyecare,7761 Shaffer Pkwy Ste 200,Littleton,CO,80127
Denver Eye Center Optical,13772 Denver West Pkwy  ,Lakewood,CO,80401
Arvada Eye Care,16205 W 64th Ave Ste 100,Arvada,CO,80007
Premier Optical,11750 W 2nd PL Ste 235,Lakewood,CO,80228
Southglenn Eyecare,6650 S Vine St Ste 160,Centennial,CO,80121
Colorado Ophthalmology Associa,3801 East Florida Ave Ste 720,Denver,CO,80210
Mountain Vista Eyecare,7761 Shaffer Pkwy Ste 200,Littleton,CO,80127
A to Z Eye Care,13402 W Coal Mine Ave Ste 120,Littleton,CO,80127
Artisan Optical,28 S Broadway  ,Denver,CO,80209
Europtics Cherry Creek,100 Fillmore St  ,Denver,CO,80206
Black Diamond Eyecare Castle P,250 Max Dr Ste 101,Castle Pines,CO,80108
Elevated Eyecare,4660 N Yosemite St Ste 150,Denver,CO,80238
Colorado Ophthalmology Associa,3801 East Florida Ave Ste 720,Denver,CO,80210
Southglenn Eyecare,6650 S Vine St Ste 160,Centennial,CO,80121
Europtics Cherry Creek,100 Fillmore St  ,Denver,CO,80206
Artisan Optical,28 S Broadway  ,Denver,CO,80209
Kiowa Eye Care Center,529 Saunders Rd  ,Fort Morgan,CO,80701
Kansas City Eye Clinic,7504 Antioch Rd  ,Overland Park,KS,66204
Kansas City Eye Clinic,7504 Antioch Rd  ,Overland Park,KS,66204
Lee Summit Family Ey,519 SW 3rd St Ste A,Lee's Summit,MO,64063
Lee Summit Family Ey,519 SW 3rd St Ste A,Lee's Summit,MO,64063
Precision Eye Group,322 S Woodscrest Dr  ,Bloomington,IN,47401
Brownsburg Family Eye Care,90 Hornaday Rd  ,Brownsburg,IN,46112
Brownsburg Family Eye Care,90 Hornaday Rd  ,Brownsburg,IN,46112
Warner Eyecare,1642 Olive Branch Parke Ln Ste 1000,Greenwood,IN,46143
Greenwood Vision Care,622 N Madison Ave  Ste 9,Greenwood,IN,46142
Precision Eye Group,322 S Woodscrest Dr  ,Bloomington,IN,47401
Zionsville Eyecare,1120 W Oak St Ste 100,Zionsville,IN,46077
Greenwood Vision Care,622 N Madison Ave  Ste 9,Greenwood,IN,46142
Warner Eyecare,1642 Olive Branch Parke Ln Ste 1000,Greenwood,IN,46143
Lanter Eyecare & Laser Surgery,10610 N Pennsylvania Ave Ste B,Indianapolis,IN,46280
Zionsville Eyecare,1120 W Oak St Ste 100,Zionsville,IN,46077
Brownsburg Family Eye Care,90 Hornaday Rd  ,Brownsburg,IN,46112
Ritter Hagee Optometry,9912 Carver Rd Ste 101,Cincinnati,OH,45242
Innovative Vision,9711 Montgomery Rd  ,Cincinnati,OH,45242
Vision One,2174 Dixie Highway  ,Ft Mitchell,KY,41017
Greenwood Vision Care,622 N Madison Ave  Ste 9,Greenwood,IN,46142
Warner Eyecare,1642 Olive Branch Parke Ln Ste 1000,Greenwood,IN,46143
Innovative Vision,9711 Montgomery Rd  ,Cincinnati,OH,45242
Ritter Hagee Optometry,9912 Carver Rd Ste 101,Cincinnati,OH,45242
Vision One,2174 Dixie Highway  ,Ft Mitchell,KY,41017
LLS,2150 Bixby Rd Ste. 200,Lockbourne,OH,43137
Arlington Optical,1756 West Lane Avenue  ,Columbus,OH,43221
Columbus Eyeworks,25 W Hubbard Ave  ,Columbus,OH,43215
Northwest EyeCare Professional,3360 Tremont Rd Ste 200,Columbus,OH,43221
Carolina Eye,2396 E Franklin Blvd Mason & Mincey OD PA ,Gastonia,NC,28054
Pickerington Eyecare ,141 Clint Dr  ,Pickerington,OH,43147
LLS,2150 Bixby Rd Ste. 200,Lockbourne,OH,43137
Carolina Eye,2396 E Franklin Blvd Mason & Mincey OD PA ,Gastonia,NC,28054
Columbus Eyeworks,25 W Hubbard Ave  ,Columbus,OH,43215
Pickerington Eyecare ,141 Clint Dr  ,Pickerington,OH,43147
Stanford Ranch Optometry,2320 Sunset Blvd #110,Rocklin,CA,95765
Stanford Ranch Optometry,2320 Sunset Blvd #110,Rocklin,CA,95765
Pittsburgh Primary Eyecare,2026 E Carson St.  ,Pittsburgh,PA,15203
Mt Airy Eyecare,1507 South Main St  ,Mount Airy,MD,21771
Colonial Opticians - Kentlands,718 Centerpoint Way  ,Gaithersburg,MD,20878
Archer's Eyewear,12 Commerce Park Drive Units G & H,Barrie,ON,L4N8W8
Chevy Chase Eye Design,11611 Glen Rd  ,Potomac,MD,20854
Olney Opticians Inc,3423 Olney Laytonsville Road  ,Olney,MD,20832
Archer's Eyewear,12 Commerce Park Drive Units G & H,Barrie,ON,L4N8W8
Mt Airy Eyecare,1507 South Main St  ,Mount Airy,MD,21771
Professional Vision Eyewear ,2147 York Rd  ,Timonium,MD,21093
Eye To Eye Optical,1819 York Rd  ,TIMONIUM,MD,21093
Professional Vision of Ellicot,8450 Baltimore National Pike Ste 155,Ellicott,MD,21043
Professional Vision Eyewear ,2147 York Rd  ,Timonium,MD,21093
Eye To Eye Optical,1819 York Rd  ,TIMONIUM,MD,21093
Simon Eye Associates,5301 Limestone Rd Ste 128,Wilmington,DE,19808
Professional Vision of Ellicot,8450 Baltimore National Pike Ste 155,Ellicott,MD,21043
Simon Eye Associates,5301 Limestone Rd Ste 128,Wilmington,DE,19808
Marchese Opticians,3517 West Chester Pike  ,Newtown Square,PA,19073
Spectix Optique,222 W Rittenhouse Sq  ,Philadelphia,PA,19103
Eyeland,1001 Laurel Oak Rd Ste A-1,Voorhees,NJ,08043
Kresloff Eye Associates,1055 Haddon Ave  ,Collingswood,NJ,08108
Frederick Meserall & Co,206 Kings Hwy East  ,Haddonfield,NJ,08033
V.J.Marchese Inc,713 Montgomery Ave  ,Narberth,PA,19072
Penn Optical,145 King Of Prussia Rd  ,Radnor,PA,19087
"E.M.A. Opticians, Inc",107 North Wayne Ave  ,Wayne,PA,19087
Eyeland,1001 Laurel Oak Rd Ste A-1,Voorhees,NJ,08043
Frederick Meserall & Co,206 Kings Hwy East  ,Haddonfield,NJ,08033
Kresloff Eye Associates,1055 Haddon Ave  ,Collingswood,NJ,08108
Spectix Optique,222 W Rittenhouse Sq  ,Philadelphia,PA,19103
Hidden Valley Eye Care,1147 E Draper Pkwy  ,Draper,UT,84020
Moran Eyecare Mid Valley,243 E 6100 South  ,Murray,UT,84107
Hidden Valley Eye Care,1147 E Draper Pkwy  ,Draper,UT,84020
Moran Eyecare Mid Valley,243 E 6100 South  ,Murray,UT,84107
Moran Optical,65 Mario Capecchi Dr  ,Salt Lake City,UT,84132
University Healthcare,1743 W Redstone Center Dr Ste 115,Park City,UT,84098
University Healthcare,1743 W Redstone Center Dr Ste 115,Park City,UT,84098
Hidden Valley Eye Care,1147 E Draper Pkwy  ,Draper,UT,84020
Moran Eyecare Mid Valley,243 E 6100 South  ,Murray,UT,84107
Moran Optical,65 Mario Capecchi Dr  ,Salt Lake City,UT,84132
University Healthcare,1743 W Redstone Center Dr Ste 115,Park City,UT,84098
Winter Park Optical,45 County Rd 804 Ste 150,Fraser,CO,80442
Winter Park Optical,45 County Rd 804 Ste 150,Fraser,CO,80442
Tanner Vision,114 14th St S.W.  ,Loveland,CO,80537
Aspen Eyewear,2525 Arapahoe Ste E23,Boulder,CO,80302
Sunrise Vision Care,1692 30th St  ,Boulder,CO,80301
Eagle Vision & Eye Clinic,2080 Main St  ,Longmont,CO,80501
Third Avenue Eyecare,800 3rd Ave  ,Longmont,CO,80501
Tanner Vision,114 14th St S.W.  ,Loveland,CO,80537
Rocky Mountain Family Vision,3609 S Timberline Rd  Unit B ,Fort Collins,CO,80525
Eye Center Of No. Colorado Opt,1725 E Prospect Rd  ,Fort Collins,CO,80525
Eagle Vision & Eye Clinic,2080 Main St  ,Longmont,CO,80501
Kiowa Eye Care Center,529 Saunders Rd  ,Fort Morgan,CO,80701
Carbon Valley Eye Care,5900 Keyes St Unit 101,Frederick,CO,80504
Rocky Mountain Family Vision,3609 S Timberline Rd  Unit B ,Fort Collins,CO,80525
Eye Center Of No. Colorado Opt,1725 E Prospect Rd  ,Fort Collins,CO,80525
Tanner Vision,114 14th St S.W.  ,Loveland,CO,80537
Kiowa Eye Care Center,529 Saunders Rd  ,Fort Morgan,CO,80701
Bixby Eye Center,6807 N Knoxville  ,Peoria,IL,61614
Bixby Eye Center,6807 N Knoxville  ,Peoria,IL,61614
Bixby Eye Center,6807 N Knoxville  ,Peoria,IL,61614
Zionsville Eyecare,1120 W Oak St Ste 100,Zionsville,IN,46077
Lanter Eyecare & Laser Surgery,10610 N Pennsylvania Ave Ste B,Indianapolis,IN,46280
Brownsburg Family Eye Care,90 Hornaday Rd  ,Brownsburg,IN,46112
Greenwood Vision Care,622 N Madison Ave  Ste 9,Greenwood,IN,46142
Warner Eyecare,1642 Olive Branch Parke Ln Ste 1000,Greenwood,IN,46143
Lanter Eyecare & Laser Surgery,10610 N Pennsylvania Ave Ste B,Indianapolis,IN,46280
Zionsville Eyecare,1120 W Oak St Ste 100,Zionsville,IN,46077
Brownsburg Family Eye Care,90 Hornaday Rd  ,Brownsburg,IN,46112
Optimal Sight,5014 W Jefferson Blvd  ,Fort Wayne,IN,46804
Greenwood Vision Care,622 N Madison Ave  Ste 9,Greenwood,IN,46142
Optimal Sight,5014 W Jefferson Blvd  ,Fort Wayne,IN,46804
Eye Specs on Main,222 W Main St  ,Fort Wayne,IN,46802
Eyes On Main ,334 S Main St  ,Findlay,OH,45840
Shamrock Family Eye Care,5151 Post Rd Ste 100,Dublin,OH,43017
Shamrock Family Eye Care,5151 Post Rd Ste 100,Dublin,OH,43017
Northwest EyeCare Professional,3360 Tremont Rd Ste 200,Columbus,OH,43221
Arlington Optical,1756 West Lane Avenue  ,Columbus,OH,43221
Columbus Eyeworks,25 W Hubbard Ave  ,Columbus,OH,43215
Pickerington Eyecare ,141 Clint Dr  ,Pickerington,OH,43147
Shamrock Family Eye Care,5151 Post Rd Ste 100,Dublin,OH,43017
Northwest EyeCare Professional,3360 Tremont Rd Ste 200,Columbus,OH,43221
Columbus Eyeworks,25 W Hubbard Ave  ,Columbus,OH,43215
Arlington Optical,1756 West Lane Avenue  ,Columbus,OH,43221
Carolina Eye,2396 E Franklin Blvd Mason & Mincey OD PA ,Gastonia,NC,28054
Dr Scott Keating,707  N Wooster Ave  ,Dover,OH,44622
Stanford Ranch Optometry,2320 Sunset Blvd #110,Rocklin,CA,95765
Pickerington Eyecare ,141 Clint Dr  ,Pickerington,OH,43147
Stanford Ranch Optometry,2320 Sunset Blvd #110,Rocklin,CA,95765
Dr Scott Keating,707  N Wooster Ave  ,Dover,OH,44622
Pittsburgh Primary Eyecare,2026 E Carson St.  ,Pittsburgh,PA,15203
Pittsburgh Primary Eyecare,2026 E Carson St.  ,Pittsburgh,PA,15203
Stanford Ranch Optometry,2320 Sunset Blvd #110,Rocklin,CA,95765
Pittsburgh Primary Eyecare,2026 E Carson St.  ,Pittsburgh,PA,15203
Archer's Eyewear,12 Commerce Park Drive Units G & H,Barrie,ON,L4N8W8
Goepfert Eye Associates Inc,1831 E Chocolate Ave  ,Hershey,PA,17033
Fava & Maria Eye Associates,875 Norman Dr  ,Lebanon,PA,17042
Archer's Eyewear,12 Commerce Park Drive Units G & H,Barrie,ON,L4N8W8
Fava & Maria Eye Associates,875 Norman Dr  ,Lebanon,PA,17042
Goepfert Eye Associates Inc,1831 E Chocolate Ave  ,Hershey,PA,17033
Wichryk Eye Associates,6451 Village Ln Ste 200,Macungie,PA,18062
Drs Boas Vision Associates,577 W Uwchlan Ave  ,Exton,PA,19341
Wichryk Eye Associates,6451 Village Ln Ste 200,Macungie,PA,18062
Total Eyecare,3323 Hamilton Blvd  ,Allentown,PA,18103
Spring House Eye Associates,1005 Penllyn Pike  ,Spring House,PA,19477
John P. Boscia OD,2020 Sullivan Trail  ,Easton,PA,18040
"E.M.A. Opticians, Inc",107 North Wayne Ave  ,Wayne,PA,19087
Penn Optical,145 King Of Prussia Rd  ,Radnor,PA,19087
The Optical Shop,419 N Harrison St Princeton Healthcare Center,Princeton,NJ,08540
Rowden Opticians,82 W Main St  ,Sommerville,NJ,08876
Bomarr Opticians,1467 Route 1  ,Edison,NJ,08837
Eye Care Center North Jersey,350 Park Avenue  ,Scotch Plains,NJ,07076
Mirkin Vision,253 Beach 116th St  ,Rockaway Park ,NY,11694
Ocean View Optical,1075 Brighton Beach Ave  ,Brooklyn,NY,11235
Ocean Eyes Optical,2907 Ocean Ave  ,Brooklyn,NY,11235
Central Vision Care Optometry,538 Central Ave  ,Cedarhurst,NY,11516
Viewtopia,810 Kings Highway  ,Brooklyn,NY,11223
Bright Eyes Inc,508 Kings Highway Ste 1,Brooklyn,NY,11223
Sound Vision Care - Bay Parkwa,6806 Bay Parkway  ,Brooklyn,NY,11204
Eyes On Broadway,1344 Broadway  ,Hewlett,NY,11557
Bellport Perspective Eye care,5 Bellport Ln  ,Bellport,NY,11713
Long Island Opticians,3844 Sunrise Hwy  ,Seaford,NY,11783
Optical Concepts,2469 Merrick Road   ,Bellmore,NY,11710
Pearle Vision,2365 Hempstead Tpke  ,East Meadow,NY,11554
Wiggs Opticians,125 Main Street  ,Stonybrook,NY,11790
Main Street Optics,82 Main Street  ,Southampton,NY,11968
Bellport Perspective Eye care,5 Bellport Ln  ,Bellport,NY,11713
Wiggs Opticians,125 Main Street  ,Stonybrook,NY,11790
Main Street Optics,82 Main Street  ,Southampton,NY,11968
Moran Optical,65 Mario Capecchi Dr  ,Salt Lake City,UT,84132
Moran Eyecare Mid Valley,243 E 6100 South  ,Murray,UT,84107
University Healthcare,1743 W Redstone Center Dr Ste 115,Park City,UT,84098
Hidden Valley Eye Care,1147 E Draper Pkwy  ,Draper,UT,84020
University Healthcare,1743 W Redstone Center Dr Ste 115,Park City,UT,84098
Moran Optical,65 Mario Capecchi Dr  ,Salt Lake City,UT,84132
Moran Eyecare Mid Valley,243 E 6100 South  ,Murray,UT,84107
Hidden Valley Eye Care,1147 E Draper Pkwy  ,Draper,UT,84020
University Healthcare,1743 W Redstone Center Dr Ste 115,Park City,UT,84098
Eye Center Of No. Colorado Opt,1725 E Prospect Rd  ,Fort Collins,CO,80525
Rocky Mountain Family Vision,3609 S Timberline Rd  Unit B ,Fort Collins,CO,80525
Eye Center Of No. Colorado Opt,1725 E Prospect Rd  ,Fort Collins,CO,80525
Rocky Mountain Family Vision,3609 S Timberline Rd  Unit B ,Fort Collins,CO,80525
Tanner Vision,114 14th St S.W.  ,Loveland,CO,80537
Eye Center Of No. Colorado Opt,1725 E Prospect Rd  ,Fort Collins,CO,80525
Russ' Uptown Optical,4122 University Ave  ,Des Moines,IA,50311
Russ' Uptown Optical,4122 University Ave  ,Des Moines,IA,50311
Ankeny Family Vision Center,311 N. Ankeny Blvd  ,Ankeny,IA,50023
Russ' Uptown Optical,4122 University Ave  ,Des Moines,IA,50311
Ankeny Family Vision Center,311 N. Ankeny Blvd  ,Ankeny,IA,50023
Optix Eye Designs Inc,2740 1st Ave NE  ,Cedar Rapids,IA,52402
Bixby Eye Center,6807 N Knoxville  ,Peoria,IL,61614
Bixby Eye Center,6807 N Knoxville  ,Peoria,IL,61614
Bixby Eye Center,6807 N Knoxville  ,Peoria,IL,61614
Brenart Eye Clinic,120 E. Countryside Parkway  ,Yorkville,IL,60560
Advanced Family Eyecare,24510 W Lockport St Ste 100,Plainfield,IL,60544
Advanced Family Eyecare,24510 W Lockport St Ste 100,Plainfield,IL,60544
Brenart Eye Clinic,120 E. Countryside Parkway  ,Yorkville,IL,60560
Mueller Eyecare Associates,2620 83rd St  ,Darien,IL,60561
EFP Opticians - Hinsdale,12 E 1st St  ,Hinsdale,IL,60521
Robert Wilkemeyer O.D. Ltd,777 N. York Rd  ,Hinsdale,IL,60521
Eyewear on the Square,1 Court House Square Ste 8,Crown Point,IN,46307
Eyes on Wheaton,127 W Wesley St  ,Wheaton,IL,60187
Eyewear on the Square,1 Court House Square Ste 8,Crown Point,IN,46307
Village Eyecare - Hyde Park ,1613 E 55 St  ,Chicago,IL,60615
Solo Eye Care & Eyewear Galler,1444 South Michigan Ave  ,Chicago,IL,60605
Village Eye Care - South Loop,1243 S Wabash  ,Chicago,IL,60605
Village Eye Care - Taylor,1116 W Taylor  ,Chicago,IL,60607
Visionary Eye Care Prof,181 W Madison St Ste 125,Chicago,IL,60602
Mueller Eyecare Associates,2620 83rd St  ,Darien,IL,60561
Eye Site Optical,5323 N Main St  ,Mishawaka,IN,46545
Eyewear on the Square,1 Court House Square Ste 8,Crown Point,IN,46307
Spectrum Eyewear Gallery,904 Parkway Ave  ,Elkhart,IN,46516
Optimal Sight,5014 W Jefferson Blvd  ,Fort Wayne,IN,46804
Spectrum Eyewear Gallery,904 Parkway Ave  ,Elkhart,IN,46516
Eye Specs on Main,222 W Main St  ,Fort Wayne,IN,46802
Eye Site Optical,5323 N Main St  ,Mishawaka,IN,46545
Eye Specs on Main,222 W Main St  ,Fort Wayne,IN,46802
Optimal Sight,5014 W Jefferson Blvd  ,Fort Wayne,IN,46804
Spectrum Eyewear Gallery,904 Parkway Ave  ,Elkhart,IN,46516
Eyes On Main ,334 S Main St  ,Findlay,OH,45840
Franklin Park Vision,5577 Monroe St Ste J,Sylvania,OH,43560
D. Duncan Paterson O.D.,222 E Maumee  ,Adrian,MI,49221
Eye Specs on Main,222 W Main St  ,Fort Wayne,IN,46802
Eyes On Main ,334 S Main St  ,Findlay,OH,45840
Franklin Park Vision,5577 Monroe St Ste J,Sylvania,OH,43560
D. Duncan Paterson O.D.,222 E Maumee  ,Adrian,MI,49221
Eyes On Main ,334 S Main St  ,Findlay,OH,45840
Dr Scott Keating,707  N Wooster Ave  ,Dover,OH,44622
Dr Scott Keating,707  N Wooster Ave  ,Dover,OH,44622
Stanford Ranch Optometry,2320 Sunset Blvd #110,Rocklin,CA,95765
Pittsburgh Primary Eyecare,2026 E Carson St.  ,Pittsburgh,PA,15203
Stanford Ranch Optometry,2320 Sunset Blvd #110,Rocklin,CA,95765
Pittsburgh Primary Eyecare,2026 E Carson St.  ,Pittsburgh,PA,15203
Engle Eyewear Optical LLC,1114 Highway 315 Blvd Plaza 315,Wilkes-Barre,PA,18702
Engle Eyewear Optical LLC,1114 Highway 315 Blvd Plaza 315,Wilkes-Barre,PA,18702
Total Eyecare,3323 Hamilton Blvd  ,Allentown,PA,18103
Wichryk Eye Associates,6451 Village Ln Ste 200,Macungie,PA,18062
John P. Boscia OD,2020 Sullivan Trail  ,Easton,PA,18040
Fava & Maria Eye Associates,875 Norman Dr  ,Lebanon,PA,17042
Engle Eyewear Optical LLC,1114 Highway 315 Blvd Plaza 315,Wilkes-Barre,PA,18702
John P. Boscia OD,2020 Sullivan Trail  ,Easton,PA,18040
Total Eyecare,3323 Hamilton Blvd  ,Allentown,PA,18103
Wichryk Eye Associates,6451 Village Ln Ste 200,Macungie,PA,18062
Optical Options,477 Rt 10 East  ,Randolph,NJ,07869
Optical Options,477 Rt 10 East  ,Randolph,NJ,07869
J C Reiss Optician,25 South St  ,Morristown,NJ,07960
Eyemagination,1633 Rte 202 Ste 108,Pomona,NY,10970
Eyeglass Boutique,131 Madison Ave  Ste 130,Morristown,NJ,07960
Levato Eyewear,21 Oak St  ,Ridgewood,NJ,07450
Croton Vision Center,179 S. Riverside Ave  ,Croton,NY,10520
Westchester Health Medical Pc,190 Goldens Bridge Rd  ,Katonah,NY,10536
Hudson River Optometry,4 N Broadway  ,Tarrytown,NY,10591
Eye Adventure,70 S Main St  ,New City,NY,10956
Cross River Eyecare,20B N Salem Rd  ,Cross River,NY,10518
Metro Vision,245 Main St  ,White Plains,NY,10601
WESTMED  Medical Group,210 Westchester Ave Ste 301 - OPTICAL,White Plains,NY,10604
Wiggs Opticians,125 Main Street  ,Stonybrook,NY,11790
Norwalk Eye Care,5 Eversley Ave  ,Norwalk,CT,06851
Ridgefield Family Eyecare,96 Danbury Rd  ,Ridgefield,CT,06877
Dr George Amatuzzi OD,419 Main St  ,Ridgefield,CT,06877
Main Street Optometry,89 Main Street  ,Northport,NY,11768
The Eyeglass Lass,27 Coogan Blvd Ste 23,Mystic,CT,06355
Main Street Optics,82 Main Street  ,Southampton,NY,11968
Harvey Lewis - Glastonbury,140 Glastonbury Blvd  ,Glastonbury,CT,06033
Harvey & Lewis - Kensington,28 Chamberlain Highway  ,Kensington,CT,06037
Stepensky's Opticians,513 South Main St  ,New Britain,CT,06051
Sakonnet Eye Care,811 Aquidneck Ave.  ,Middletown,RI,02842
Ferocious Eyes Optical,5600 Post Rd Ste 111,East Greenwich,RI,02818
The Eyeglass Lass,27 Coogan Blvd Ste 23,Mystic,CT,06355
Bling Eyewear,2000 Chapel View Blvd Ste 220,Cranston,RI,02920
ACK Eye,13 Old South Road  ,Nantucket,MA,02554
Snyder & Vitelli Eye Care,65 Sea St Ext  ,Hyannis,MA,02601
Puzio Eyecare Associates,860 MA-134 Unit 8,South Dennis,MA,02660
Sakonnet Eye Care,811 Aquidneck Ave.  ,Middletown,RI,02842
ACK Eye,13 Old South Road  ,Nantucket,MA,02554
Puzio Eyecare Associates,119 MA-137  ,East Harwich,MA,02645
Puzio Eyecare Associates,860 MA-134 Unit 8,South Dennis,MA,02660
Snyder & Vitelli Eye Care,65 Sea St Ext  ,Hyannis,MA,02601
Nauset Optical,9 West Rd  ,Orleans,MA,02653
ACK Eye,13 Old South Road  ,Nantucket,MA,02554
Ann's Eyewear,691 Shoshone St North  ,Twin Falls,ID,83301
Ann's Eyewear,691 Shoshone St North  ,Twin Falls,ID,83301
Ann's Eyewear,691 Shoshone St North  ,Twin Falls,ID,83301
Ankeny Family Vision Center,311 N. Ankeny Blvd  ,Ankeny,IA,50023
Russ' Uptown Optical,4122 University Ave  ,Des Moines,IA,50311
Ankeny Family Vision Center,311 N. Ankeny Blvd  ,Ankeny,IA,50023
Russ' Uptown Optical,4122 University Ave  ,Des Moines,IA,50311
Ankeny Family Vision Center,311 N. Ankeny Blvd  ,Ankeny,IA,50023
Russ' Uptown Optical,4122 University Ave  ,Des Moines,IA,50311
Optix Eye Designs Inc,2740 1st Ave NE  ,Cedar Rapids,IA,52402
Optix Eye Designs Inc,2740 1st Ave NE  ,Cedar Rapids,IA,52402
Optix Eye Designs Inc,2740 1st Ave NE  ,Cedar Rapids,IA,52402
Brenart Eye Clinic,120 E. Countryside Parkway  ,Yorkville,IL,60560
Style Optique Inc,100 W Higgins Rd E-30,South Barrington,IL,60010
Eyes on Wheaton,127 W Wesley St  ,Wheaton,IL,60187
Lake Zurich Eye Care ,534 N Rand Rd  ,Lake Zurich,IL,60047
Advanced Family Eyecare,24510 W Lockport St Ste 100,Plainfield,IL,60544
Style Optique Inc,100 W Higgins Rd E-30,South Barrington,IL,60010
Eyes on Wheaton,127 W Wesley St  ,Wheaton,IL,60187
Palatine Vision Center Llc,456 W Northwest Hwy Ste 100,Palatine,IL,60067
Assure Vision,58 S. Arlington Heights  ,Arlington Heights,IL,60005
Lake Zurich Eye Care ,534 N Rand Rd  ,Lake Zurich,IL,60047
Glasses Ltd.,900 N Michigan Ave  ,Chicago,IL,60611
EFP Opticians - Dearborn ,1205 N Dearborn St  ,Chicago,IL,60610
Visionary Eye Care Prof,5222 N Clark St  ,Chicago,IL,60640
Visionary Eye Care Prof,181 W Madison St Ste 125,Chicago,IL,60602
Village Eye Care - South Loop,1243 S Wabash  ,Chicago,IL,60605
Solo Eye Care & Eyewear Galler,1444 South Michigan Ave  ,Chicago,IL,60605
Eye Site Optical,5323 N Main St  ,Mishawaka,IN,46545
Spectrum Eyewear Gallery,904 Parkway Ave  ,Elkhart,IN,46516
Village Eyecare - Hyde Park ,1613 E 55 St  ,Chicago,IL,60615
Glasses Ltd.,900 N Michigan Ave  ,Chicago,IL,60611
Visionary Eye Care Prof,181 W Madison St Ste 125,Chicago,IL,60602
EFP Opticians - Dearborn ,1205 N Dearborn St  ,Chicago,IL,60610
Solo Eye Care & Eyewear Galler,1444 South Michigan Ave  ,Chicago,IL,60605
Village Eye Care - South Loop,1243 S Wabash  ,Chicago,IL,60605
Visionary Eye Care Prof,5222 N Clark St  ,Chicago,IL,60640
Village Eye Care - Taylor,1116 W Taylor  ,Chicago,IL,60607
Spectrum Eyewear Gallery,904 Parkway Ave  ,Elkhart,IN,46516
Dobbs Optical,124 West South St  ,Kalamazoo,MI,49007
Eye Site Optical,5323 N Main St  ,Mishawaka,IN,46545
Zeeland Vision Service P.C.,300 S State St Ste 15,Zeeland,MI,49464
Dobbs Optical,124 West South St  ,Kalamazoo,MI,49007
D. Duncan Paterson O.D.,222 E Maumee  ,Adrian,MI,49221
Spectrum Eyewear Gallery,904 Parkway Ave  ,Elkhart,IN,46516
Eyes Optometry,221 S Bridge St  ,Grand Ledge,MI,48837
D. Duncan Paterson O.D.,222 E Maumee  ,Adrian,MI,49221
Ann Arbor Optometry,2433 Oak Valley Dr  Ste 300,Ann Arbor,MI,48103
Dr Steven Lutz & Assoc,1565 Eastover Pl  ,Ann Arbor,MI,48104
Kellogg Eye Center Optical,1000 Wall St Rm 1050,Ann Arbor,MI,48105
Franklin Park Vision,5577 Monroe St Ste J,Sylvania,OH,43560
Franklin Park Vision,5577 Monroe St Ste J,Sylvania,OH,43560
Dr Steven Lutz & Assoc,1565 Eastover Pl  ,Ann Arbor,MI,48104
Ann Arbor Optometry,2433 Oak Valley Dr  Ste 300,Ann Arbor,MI,48103
Kellogg Eye Center Optical,1000 Wall St Rm 1050,Ann Arbor,MI,48105
Metropolitan Eye Center,21711 Greater Mack Ave  ,ST CLAIR SHORES,MI,48080
The Hills Eyecare and Optical,31815 Southfield Rd Ste 12,Beverley Hills,MI,48025
Optik Birmingham,247 W. Maple Rd  ,Birmingham,MI,48009
Birmingham Vision Care,4114 W Maple Rd  ,Bloomfield Twp,MI,48301
Engle Eyewear Optical LLC,1114 Highway 315 Blvd Plaza 315,Wilkes-Barre,PA,18702
Engle Eyewear Optical LLC,1114 Highway 315 Blvd Plaza 315,Wilkes-Barre,PA,18702
Advanced Eyecare Solutions,5315 Route 32 Columbia Greene Optometry,Catskill,NY,12414
Luxe optique,602 Warren St  ,Hudson,NY,12534
Advanced Eyecare Solutions,183 HEALY BLVD Columbia Greene Optometry,Hudson,NY,12534
Luxe Optique,183 Main St  ,Beacon,NY,12508
Luxe Optique,183 Main St  ,Beacon,NY,12508
Luxe optique,602 Warren St  ,Hudson,NY,12534
Advanced Eyecare Solutions,183 HEALY BLVD Columbia Greene Optometry,Hudson,NY,12534
Advanced Eyecare Solutions,5315 Route 32 Columbia Greene Optometry,Catskill,NY,12414
Berkshire Eye Center,409 Stockbridge Rd  ,Great Barrington,MA,01230
Harvey & Lewis - Canton,110 Albany Tpke Suite 505,Canton,CT,06019
Harvey & Lewis - West Hartford,355 N Main St  ,West Hartford,CT,06117
Bosson Optical,29 West St  ,Litchfield,CT,06759
Harvey & Lewis - Farmington,263 Farmington Ave  ,Farmington,CT,06032
Sight,17 South Main St  ,West Hartford,CT,06107
Studio 20/20 ,420 Main St Bldg 1,Sturbridge,MA,01566
Harvey & Lewis - Enfield,34 Hazard Ave Unit 14 - Brookside Plaza,Enfield,CT,06082
Harvey Lewis - Glastonbury,140 Glastonbury Blvd  ,Glastonbury,CT,06033
Harvey & Lewis - Hartford,85 Seymour St  ,Hartford,CT,06106
Amherst Optical Shoppe,195 N Pleasant St  ,Amherst,MA,01004
Opt Eyewear Boutique,141 Wayland Ave  ,Providence,RI,02906
Gregorys Optical,263 Wickenden St  ,Providence,RI,02903
Medfield Eye Associates,06 West Mill St FL 1,Medfield,MA,02052
Bling Eyewear,2000 Chapel View Blvd Ste 220,Cranston,RI,02920
Spectators Eyewear LLC,55 Commerece Way Ste 1A,Plymouth,MA,02360
Scituate Harbour Vision Source,85 Front St Unit 81,Scituate,MA,02066
Snyder & Vitelli Eye Care,65 Sea St Ext  ,Hyannis,MA,02601
Puzio Eyecare Associates,860 MA-134 Unit 8,South Dennis,MA,02660
Winthrop Eye Center,42 Woodside Ave  ,Winthrop,MA,02152
Nauset Optical,9 West Rd  ,Orleans,MA,02653
Puzio Eyecare Associates,119 MA-137  ,East Harwich,MA,02645
Puzio Eyecare Associates,860 MA-134 Unit 8,South Dennis,MA,02660
Snyder & Vitelli Eye Care,65 Sea St Ext  ,Hyannis,MA,02601
Nauset Optical,9 West Rd  ,Orleans,MA,02653
Puzio Eyecare Associates,119 MA-137  ,East Harwich,MA,02645
Advanced Eyecare,425 N Main St  ,Myrtle Creek,OR,97457
Advanced Eyecare,425 N Main St  ,Myrtle Creek,OR,97457
Advanced Eyecare,425 N Main St  ,Myrtle Creek,OR,97457
Nielson Eyecare Professionals,1715 S. Wells Ave  ,Meridian,ID,83642
Eastgate Optical,939 W Beacon St  ,Boise,ID,83706
Intermountain Eye & Laser Cent,3090 Gentry Way Ste 120,Meridian,ID,83642
Intermountain Eye & Laser Cent,999 N. Curtis Suite 205,Boise,ID,83706
Ada Vision Center,1926 W State St  ,Boise,ID,83702
Ann's Eyewear,691 Shoshone St North  ,Twin Falls,ID,83301
Ann's Eyewear,691 Shoshone St North  ,Twin Falls,ID,83301
Ann's Eyewear,691 Shoshone St North  ,Twin Falls,ID,83301
Optix Eye Designs Inc,2740 1st Ave NE  ,Cedar Rapids,IA,52402
Optix Eye Designs Inc,2740 1st Ave NE  ,Cedar Rapids,IA,52402
Isthmus Eye Care,7601 University Ave  ,Middleton,WI,53562
Isthmus Eye Care,7601 University Ave  ,Middleton,WI,53562
Eyeopia SC,1719 Monroe St  ,Madison,WI,53711
Eyeopia SC,1719 Monroe St  ,Madison,WI,53711
Isthmus Eye Care,7601 University Ave  ,Middleton,WI,53562
Metro Eye,325 E Chicago St Ste 100,Milwaukee,WI,53202
Optix On Downer,2567 N Downer Ave  ,Milwaukee,WI,53211
Lake Zurich Eye Care ,534 N Rand Rd  ,Lake Zurich,IL,60047
Metro Eye,325 E Chicago St Ste 100,Milwaukee,WI,53202
Optix On Downer,2567 N Downer Ave  ,Milwaukee,WI,53211
Lake Zurich Eye Care ,534 N Rand Rd  ,Lake Zurich,IL,60047
Premier Eye Care & Surgery,1120 West Lake Cook Rd Ste C,Buffalo Grove,IL,60089
Metro Eye,325 E Chicago St Ste 100,Milwaukee,WI,53202
Optix On Downer,2567 N Downer Ave  ,Milwaukee,WI,53211
Premier Eye Care & Surgery,1120 West Lake Cook Rd Ste C,Buffalo Grove,IL,60089
Superior Optical,2723 Pfingston Rd  ,Glenview,IL,60025
Lake Zurich Eye Care ,534 N Rand Rd  ,Lake Zurich,IL,60047
Zeeland Vision Service P.C.,300 S State St Ste 15,Zeeland,MI,49464
Michigan Street Optical,833 Michigan St NE Ste 101,Grand Rapids,MI,49503
Zeeland Vision Service P.C.,300 S State St Ste 15,Zeeland,MI,49464
Michigan Street Optical,833 Michigan St NE Ste 101,Grand Rapids,MI,49503
Dobbs Optical,124 West South St  ,Kalamazoo,MI,49007
Eyes Optometry,221 S Bridge St  ,Grand Ledge,MI,48837
Eyes Optometry,221 S Bridge St  ,Grand Ledge,MI,48837
Michigan Street Optical,833 Michigan St NE Ste 101,Grand Rapids,MI,49503
Dobbs Optical,124 West South St  ,Kalamazoo,MI,49007
Zeeland Vision Service P.C.,300 S State St Ste 15,Zeeland,MI,49464
Kellogg Eye Center at Brighton,7500 Challis Rd  ,Brighton,MI,48116
Eyes Optometry,221 S Bridge St  ,Grand Ledge,MI,48837
Kellogg Eye Center Optical,1000 Wall St Rm 1050,Ann Arbor,MI,48105
Ann Arbor Optometry,2433 Oak Valley Dr  Ste 300,Ann Arbor,MI,48103
Birmingham Vision Care,4114 W Maple Rd  ,Bloomfield Twp,MI,48301
Optik Birmingham,247 W. Maple Rd  ,Birmingham,MI,48009
The Hills Eyecare and Optical,31815 Southfield Rd Ste 12,Beverley Hills,MI,48025
Kellogg Eye Center at Brighton,7500 Challis Rd  ,Brighton,MI,48116
Metropolitan Eye Center,21711 Greater Mack Ave  ,ST CLAIR SHORES,MI,48080
Optik Birmingham,247 W. Maple Rd  ,Birmingham,MI,48009
The Hills Eyecare and Optical,31815 Southfield Rd Ste 12,Beverley Hills,MI,48025
Birmingham Vision Care,4114 W Maple Rd  ,Bloomfield Twp,MI,48301
Optometrists on Colborne,600 Colborne St  ,London,ON,N6B2V2
Optical Design,84 Wellington St  ,Stratford,ON,N5A2L2
Metropolitan Eye Center,21711 Greater Mack Ave  ,ST CLAIR SHORES,MI,48080
Optometrists on Colborne,600 Colborne St  ,London,ON,N6B2V2
Optical Design,84 Wellington St  ,Stratford,ON,N5A2L2
Dolman Eyecare Centre,251-B Huron Street  ,New Hamburg,ON,N3A1K2
Advanced Vision Fennell,989 Fennell Ave East Unit A,Hamilton,ON,L8T2Z7
Dr Sheldon Salaba Optometry Pc,67 Queen St South  ,Hamilton,ON,L8P3R6
Dr J. Scott Peaker Optometrist,14 Elm St  ,Grimsby,ON,L3M1H2
Dolman Eyecare Centre,251-B Huron Street  ,New Hamburg,ON,N3A1K2
Speer Opticians,399 Ontario St  ,St Catherines,ON,L2N4M8
Dr J. Scott Peaker Optometrist,14 Elm St  ,Grimsby,ON,L3M1H2
Advanced Vision Fennell,989 Fennell Ave East Unit A,Hamilton,ON,L8T2Z7
Council Eyecare,4243 Transit Rd Transitown Plaza,Williamsville,NY,14221
Dr Sheldon Salaba Optometry Pc,67 Queen St South  ,Hamilton,ON,L8P3R6
Council Eyecare,4243 Transit Rd Transitown Plaza,Williamsville,NY,14221
Insight Eye Care,445 Market St  ,Lockport,NY,14094
Speer Opticians,399 Ontario St  ,St Catherines,ON,L2N4M8
Dr J. Scott Peaker Optometrist,14 Elm St  ,Grimsby,ON,L3M1H2
Eye Openers,2929 Monroe Ave  ,Rochester,NY,14618
Council Eyecare,4243 Transit Rd Transitown Plaza,Williamsville,NY,14221
Insight Eye Care,445 Market St  ,Lockport,NY,14094
Eye Openers,2929 Monroe Ave  ,Rochester,NY,14618
Malara Eyecare Eyewear Gallery,8395 Oswego Rd  ,Baldwinsville,NY,13027
Malara Eyecare Eyewear Gallery,8395 Oswego Rd  ,Baldwinsville,NY,13027
Malara Eyecare Eyewear Gallery,8395 Oswego Rd  ,Baldwinsville,NY,13027
Cohoes Eye Associates,91 Mohawk St  ,Cohoes,NY,12047
Family Vision Center,205 Lake Ave  ,Saratoga Springs,NY,12866
Advanced Eyecare Solutions,5315 Route 32 Columbia Greene Optometry,Catskill,NY,12414
Luxe optique,602 Warren St  ,Hudson,NY,12534
Advanced Eyecare Solutions,183 HEALY BLVD Columbia Greene Optometry,Hudson,NY,12534
Cohoes Eye Associates,91 Mohawk St  ,Cohoes,NY,12047
Family Vision Center,205 Lake Ave  ,Saratoga Springs,NY,12866
Advanced Eyecare Solutions,183 HEALY BLVD Columbia Greene Optometry,Hudson,NY,12534
Luxe optique,602 Warren St  ,Hudson,NY,12534
Berkshire Eye Center,740 Williams St  ,Pittsfield,MA,01201
Advanced Eyecare Solutions,5315 Route 32 Columbia Greene Optometry,Catskill,NY,12414
Berkshire Eye Center,740 Williams St  ,Pittsfield,MA,01201
Cohoes Eye Associates,91 Mohawk St  ,Cohoes,NY,12047
Amherst Optical Shoppe,195 N Pleasant St  ,Amherst,MA,01004
Family Vision Center,205 Lake Ave  ,Saratoga Springs,NY,12866
Berkshire Eye Center,409 Stockbridge Rd  ,Great Barrington,MA,01230
Our Town Eye Care,129 Wilton Rd  ,Peterborough,NH,03458
Amherst Optical Shoppe,195 N Pleasant St  ,Amherst,MA,01004
Nashoba Vision,140 Main St  ,Groton,MA,01450
Taylor And Murphy Optical,"545 Hooksett Rd, Unit 23  ",Manchester,NH,03104
Gateway Vision ,288 Littleton Rd Ste 2,Westford,MA,01886
Lexington Eye Associates,160 Littleton Rd Ste 9,Westford,MA,01886
Taylor And Murphy Optical,"545 Hooksett Rd, Unit 23  ",Manchester,NH,03104
Nashoba Vision,140 Main St  ,Groton,MA,01450
Lexington Eye Associates,160 Littleton Rd Ste 9,Westford,MA,01886
Gateway Vision ,288 Littleton Rd Ste 2,Westford,MA,01886
Eyelook Optical,7 Congress St.  ,Portsmouth,NH,03801
Kittery Optometric Associates,99 US Route 1 Bypass  ,Kittery,ME,03904
Winthrop Eye Center,42 Woodside Ave  ,Winthrop,MA,02152
Clear View Eye Associates,550 Main St  ,Woburn,MA,01801
Eyelook Optical,7 Congress St.  ,Portsmouth,NH,03801
Kittery Optometric Associates,99 US Route 1 Bypass  ,Kittery,ME,03904
Casco Bay Eyecare,7 Portland Farms Rd  ,Scarborough,ME,04074
Advanced Eyecare,425 N Main St  ,Myrtle Creek,OR,97457
Rainbow Optics - Westside,1740 W 18th Ave  ,Eugene,OR,97402
Rainbow Optics - Westside,1740 W 18th Ave  ,Eugene,OR,97402
Advanced Eyecare,425 N Main St  ,Myrtle Creek,OR,97457
Rainbow Optics - Westside,1740 W 18th Ave  ,Eugene,OR,97402
Advanced Eyecare,425 N Main St  ,Myrtle Creek,OR,97457
Six One Six Vision Center,27 N Fisher Park Way Ste 101,Eagle,ID,83616
Nielson Eyecare Professionals,1715 S. Wells Ave  ,Meridian,ID,83642
Intermountain Eye & Laser Cent,3090 Gentry Way Ste 120,Meridian,ID,83642
Intermountain Eye & Laser Cent,323 E Riverside Dr Ste 122,Eagle,ID,83616
Eastgate Optical,939 W Beacon St  ,Boise,ID,83706
Ada Vision Center,1926 W State St  ,Boise,ID,83702
Intermountain Eye & Laser Cent,999 N. Curtis Suite 205,Boise,ID,83706
Intermountain Eye & Laser Cent,3090 Gentry Way Ste 120,Meridian,ID,83642
Nielson Eyecare Professionals,1715 S. Wells Ave  ,Meridian,ID,83642
Eastgate Optical,939 W Beacon St  ,Boise,ID,83706
Ada Vision Center,1926 W State St  ,Boise,ID,83702
Intermountain Eye & Laser Cent,999 N. Curtis Suite 205,Boise,ID,83706
Intermountain Eye & Laser Cent,3090 Gentry Way Ste 120,Meridian,ID,83642
Intermountain Eye & Laser Cent,323 E Riverside Dr Ste 122,Eagle,ID,83616
Nielson Eyecare Professionals,1715 S. Wells Ave  ,Meridian,ID,83642
"Drs. Akre & Clark, LTD",1715 South Broadway  ,New Ulm,MN,56073
"Drs. Akre & Clark, LTD",1715 South Broadway  ,New Ulm,MN,56073
Total Vision Eyecare,1630 W Center St   ,Rochester,MN,55902
Mayo Clinic Optical Dtn,2915 Valley High Dr NW Dock 100,Rochester,MN,55901
Total Vision Eyecare,1630 W Center St   ,Rochester,MN,55902
Mayo Clinic Optical Dtn,2915 Valley High Dr NW Dock 100,Rochester,MN,55901
Total Vision Eyecare,1630 W Center St   ,Rochester,MN,55902
Isthmus Eye Care,7601 University Ave  ,Middleton,WI,53562
Eyeopia SC,1719 Monroe St  ,Madison,WI,53711
Eyeopia SC,1719 Monroe St  ,Madison,WI,53711
Isthmus Eye Care,7601 University Ave  ,Middleton,WI,53562
Faces Eyewear,10 College Ave  ,Appleton,WI,54911
Optix On Downer,2567 N Downer Ave  ,Milwaukee,WI,53211
Metro Eye,325 E Chicago St Ste 100,Milwaukee,WI,53202
Faces Eyewear,10 College Ave  ,Appleton,WI,54911
Optix On Downer,2567 N Downer Ave  ,Milwaukee,WI,53211
Metro Eye,325 E Chicago St Ste 100,Milwaukee,WI,53202
Zeeland Vision Service P.C.,300 S State St Ste 15,Zeeland,MI,49464
Michigan Street Optical,833 Michigan St NE Ste 101,Grand Rapids,MI,49503
Pleasant Optics,2865 South Lincoln  ,Mt Pleasant,MI,48858
Zeeland Vision Service P.C.,300 S State St Ste 15,Zeeland,MI,49464
Pleasant Optics,2865 South Lincoln  ,Mt Pleasant,MI,48858
Michigan Street Optical,833 Michigan St NE Ste 101,Grand Rapids,MI,49503
Eyes Optometry,221 S Bridge St  ,Grand Ledge,MI,48837
Pleasant Optics,2865 South Lincoln  ,Mt Pleasant,MI,48858
Optical Design,84 Wellington St  ,Stratford,ON,N5A2L2
Optometrists on Colborne,600 Colborne St  ,London,ON,N6B2V2
Dolman Eyecare Centre,251-B Huron Street  ,New Hamburg,ON,N3A1K2
Optical Design,84 Wellington St  ,Stratford,ON,N5A2L2
Dolman Eyecare Centre,251-B Huron Street  ,New Hamburg,ON,N3A1K2
Optometrists on Colborne,600 Colborne St  ,London,ON,N6B2V2
Milton Family Eye Care,327 Bronte St S  ,Milton,ON,L9T4A4
Milton Family Eye Care,327 Bronte St S  ,Milton,ON,L9T4A4
Queen Spectacle-Streetsville ,201 Queen St S  , Mississauga,ON,L5M1L4
Orb Eye Care,30-2508 Winston Park Dr  ,Oakville,ON,L6H7E5
Dr Sheldon Salaba Optometry Pc,67 Queen St South  ,Hamilton,ON,L8P3R6
Dolman Eyecare Centre,251-B Huron Street  ,New Hamburg,ON,N3A1K2
Perceptions Eyewear,1668 Angela Crescent  ,Mississauga,ON,L5J1B9
Chinatown Optical,424 Dundas St W  ,Toronto,ON,M5T1G7
The Optic Zone,33 Jarvis Street  ,Toronto,ON,M5E1N3
College Street Optical,340 College St  ,Toronto,ON,M5T3A9
Glass Monocle Eyecare,519 Bloor St W  ,Toronto,ON,M5S1Y4
The Eye Shoppe,201 King St West  ,Oshawa,ON,L1J2J5
Insight Eye Care,445 Market St  ,Lockport,NY,14094
Insight Optical,24 King Street West  ,Cobourg,ON,K9A2L9
360 Eyecare,2199 Queen St E  ,Toronto,ON,M4E1E5
Dr Karin Rummell & Associates,1914 Queen St E  ,Toronto,ON,M4L1H5
Clear Eye Doctors,1201 Dundas St E Ste 104 ,Toronto,ON,M4M1S2
Insight Optical,24 King Street West  ,Cobourg,ON,K9A2L9
Eye Openers,2929 Monroe Ave  ,Rochester,NY,14618
Insight Eye Care,445 Market St  ,Lockport,NY,14094
The Eye Shoppe,201 King St West  ,Oshawa,ON,L1J2J5
Eye Openers,2929 Monroe Ave  ,Rochester,NY,14618
Malara Eyecare Eyewear Gallery,8395 Oswego Rd  ,Baldwinsville,NY,13027
Kingston Optometry,2395 Princess St Unit 11,Kingston,ON,K7M0C4
Malara Eyecare Eyewear Gallery,8395 Oswego Rd  ,Baldwinsville,NY,13027
Kingston Optometry,2395 Princess St Unit 11,Kingston,ON,K7M0C4
Malara Eyecare Eyewear Gallery,8395 Oswego Rd  ,Baldwinsville,NY,13027
Family Vision Center,205 Lake Ave  ,Saratoga Springs,NY,12866
Family Vision Center,205 Lake Ave  ,Saratoga Springs,NY,12866
Cohoes Eye Associates,91 Mohawk St  ,Cohoes,NY,12047
Eyes On Elm,23 Elm St  ,Woodstock,VT,05091
Family Vision Center,205 Lake Ave  ,Saratoga Springs,NY,12866
Eyes Of The World,168 Battery St.  ,Burlington,VT,05401
Eyes On Elm,23 Elm St  ,Woodstock,VT,05091
Our Town Eye Care,129 Wilton Rd  ,Peterborough,NH,03458
Taylor And Murphy Optical,"545 Hooksett Rd, Unit 23  ",Manchester,NH,03104
Taylor And Murphy Optical,"545 Hooksett Rd, Unit 23  ",Manchester,NH,03104
Kittery Optometric Associates,99 US Route 1 Bypass  ,Kittery,ME,03904
Eyelook Optical,7 Congress St.  ,Portsmouth,NH,03801
Casco Bay Eyecare,7 Portland Farms Rd  ,Scarborough,ME,04074
Casco Bay Eyecare,1440 Congress St.  ,Portland,ME,04102
Eyes On Elm,23 Elm St  ,Woodstock,VT,05091
Casco Bay Eyecare,7 Portland Farms Rd  ,Scarborough,ME,04074
Casco Bay Eyecare,1440 Congress St.  ,Portland,ME,04102
Casco Bay Eyecare,10 Q St.  ,South Portland,ME,04106
Optical Expressions,87 Exchange St.  ,Portland,ME,04101
Maine Optometry - Freeport,242 Bath Rd  ,Brunswick,ME,04011
Casco Bay Eyecare,10 Q St.  ,South Portland,ME,04106
Optical Expressions,87 Exchange St.  ,Portland,ME,04101
Casco Bay Eyecare,256 US Route One  ,Falmouth,ME,04105
Maine Optometry - Freeport,242 Bath Rd  ,Brunswick,ME,04011
Corvallis Vision Center,227 NW 3rd St  ,Corvallis,OR,97330
Albany Eye Care Center,2330 Heritage Way Se  ,Albany,OR,97322
Rainbow Optics - Westside,1740 W 18th Ave  ,Eugene,OR,97402
Corvallis Vision Center,227 NW 3rd St  ,Corvallis,OR,97330
Albany Eye Care Center,2330 Heritage Way Se  ,Albany,OR,97322
Rainbow Optics - Westside,1740 W 18th Ave  ,Eugene,OR,97402
Eyecare Physicians & Surgeons,1309 Liberty St SE  ,Salem,OR,97302
Albany Eye Care Center,2330 Heritage Way Se  ,Albany,OR,97322
Corvallis Vision Center,227 NW 3rd St  ,Corvallis,OR,97330
Rainbow Optics - Westside,1740 W 18th Ave  ,Eugene,OR,97402
Eyecare Physicians & Surgeons,1309 Liberty St SE  ,Salem,OR,97302
Six One Six Vision Center,27 N Fisher Park Way Ste 101,Eagle,ID,83616
Intermountain Eye & Laser Cent,323 E Riverside Dr Ste 122,Eagle,ID,83616
Six One Six Vision Center,27 N Fisher Park Way Ste 101,Eagle,ID,83616
Intermountain Eye & Laser Cent,323 E Riverside Dr Ste 122,Eagle,ID,83616
Ada Vision Center,1926 W State St  ,Boise,ID,83702
Intermountain Eye & Laser Cent,999 N. Curtis Suite 205,Boise,ID,83706
Eastgate Optical,939 W Beacon St  ,Boise,ID,83706
Intermountain Eye & Laser Cent,3090 Gentry Way Ste 120,Meridian,ID,83642
"Drs. Akre & Clark, LTD",1715 South Broadway  ,New Ulm,MN,56073
"Drs. Akre & Clark, LTD",1715 South Broadway  ,New Ulm,MN,56073
"Drs. Akre & Clark, LTD",1715 South Broadway  ,New Ulm,MN,56073
Family Vision Clinic,4200 County Road 42 W Ste 300,Savage,MN,55378
Pearle Vision Eden Prairie,8251 Flying Cloud Dr Ste 2028,Eden Prairie,MN,55344
Eyeology Optical Boutique,4736 W Wind Trail  ,Eagan,MN,55122
Eyewear Specialists - Edina,7450 France Ave S Ste 100,Edina,MN,55435
Eyeology Optical Boutique,4736 W Wind Trail  ,Eagan,MN,55122
Family Vision Clinic,4200 County Road 42 W Ste 300,Savage,MN,55378
Mayo Clinic Optical Dtn,2915 Valley High Dr NW Dock 100,Rochester,MN,55901
Dakota Eye Care,1540 Humboldt Ave Ste 201,St Paul,MN,55118
Total Vision Eyecare,1630 W Center St   ,Rochester,MN,55902
Eyewear Specialists - Edina,7450 France Ave S Ste 100,Edina,MN,55435
Mayo Clinic Optical Dtn,2915 Valley High Dr NW Dock 100,Rochester,MN,55901
Total Vision Eyecare,1630 W Center St   ,Rochester,MN,55902
Associated Eye Care Optical,237 Radio Dr Suite 100,Woodbury,MN,55125
Associated Eye Care Optical,2950 Curve Crest Blvd  ,Stillwater,MN,55082
Dakota Eye Care,1540 Humboldt Ave Ste 201,St Paul,MN,55118
Total Vision Eyecare,1630 W Center St   ,Rochester,MN,55902
Mayo Clinic Optical Dtn,2915 Valley High Dr NW Dock 100,Rochester,MN,55901
Faces Eyewear,10 College Ave  ,Appleton,WI,54911
Cherry Optical Lab,1640 B Firelane Dr P.O. Box 12237 ,Green Bay,WI,54311
Faces Eyewear,10 College Ave  ,Appleton,WI,54911
Cherry Optical Lab,1640 B Firelane Dr P.O. Box 12237 ,Green Bay,WI,54311
Cherry Optical Lab,1640 B Firelane Dr P.O. Box 12237 ,Green Bay,WI,54311
Faces Eyewear,10 College Ave  ,Appleton,WI,54911
Pleasant Optics,2865 South Lincoln  ,Mt Pleasant,MI,48858
Margot's Optical,583 Berford St.  ,Wiarton,ON,N0H2T0
Margot's Optical,583 Berford St.  ,Wiarton,ON,N0H2T0
Insight Eyeworks,446 Hollandview Trail Ste 6,Aurora,ON,L4G7Z9
Gordon Wood Optical,10350 Yonge St Ste 102,Richmond Hill,ON,L4C5K9
Margot's Optical,583 Berford St.  ,Wiarton,ON,N0H2T0
Richmond Hill Optometric Clini,1650 Elgin Mills Rd E Ste 214,Richmond Hill,ON,L4S0B2
Delta Optical - Hillcrest Mall,9350 Yonge St  ,Richmond Hill,ON,L4C5G2
Lowy & Sewell Eye Care,1520 Steeles Ave West Ste 119,Concord,ON,L4K3B9
Insight Eyeworks,446 Hollandview Trail Ste 6,Aurora,ON,L4G7Z9
Port Perry Optical ,305 Queen St  ,Port Perry,ON,L9L1L5
Richmond Hill Optometric Clini,1650 Elgin Mills Rd E Ste 214,Richmond Hill,ON,L4S0B2
Gordon Wood Optical,10350 Yonge St Ste 102,Richmond Hill,ON,L4C5K9
Port Perry Optical ,305 Queen St  ,Port Perry,ON,L9L1L5
The Eye Shoppe,201 King St West  ,Oshawa,ON,L1J2J5
Insight Optical,24 King Street West  ,Cobourg,ON,K9A2L9
Insight Eyeworks,446 Hollandview Trail Ste 6,Aurora,ON,L4G7Z9
Insight Optical,24 King Street West  ,Cobourg,ON,K9A2L9
Port Perry Optical ,305 Queen St  ,Port Perry,ON,L9L1L5
Kingston Optometry,2395 Princess St Unit 11,Kingston,ON,K7M0C4
Kingston Optometry,2395 Princess St Unit 11,Kingston,ON,K7M0C4
Kingston Optometry,2395 Princess St Unit 11,Kingston,ON,K7M0C4
Eyes Of The World,168 Battery St.  ,Burlington,VT,05401
Optique Meloche,19 Rue Nicholson  ,Salaberry-de-Valleyfield,QC,J6T4M4
Eyes Of The World,168 Battery St.  ,Burlington,VT,05401
Eyes On Elm,23 Elm St  ,Woodstock,VT,05091
Eyes Of The World,168 Battery St.  ,Burlington,VT,05401
Eyes On Elm,23 Elm St  ,Woodstock,VT,05091
Opto-Réseau Magog,52 Rue Principale Ouest  ,Magog,QC,J1X2A5
Maine Optometry - Freeport,242 Bath Rd  ,Brunswick,ME,04011
Casco Bay Eyecare,256 US Route One  ,Falmouth,ME,04105
Casco Bay Eyecare,1440 Congress St.  ,Portland,ME,04102
Optical Expressions,87 Exchange St.  ,Portland,ME,04101
Casco Bay Eyecare,10 Q St.  ,South Portland,ME,04106
Maine Optometry - Freeport,242 Bath Rd  ,Brunswick,ME,04011
Casco Bay Eyecare,256 US Route One  ,Falmouth,ME,04105
Optical Expressions,87 Exchange St.  ,Portland,ME,04101
Casco Bay Eyecare,1440 Congress St.  ,Portland,ME,04102
Casco Bay Eyecare,10 Q St.  ,South Portland,ME,04106
Maine Optometry - Freeport,242 Bath Rd  ,Brunswick,ME,04011
Eyecare Physicians & Surgeons,1309 Liberty St SE  ,Salem,OR,97302
Newberg Family Eye Care,901 Brutscher St Ste E,Newberg,OR,97132
Newberg Family Eye Care,901 Brutscher St Ste E,Newberg,OR,97132
Eyecare Physicians & Surgeons,1309 Liberty St SE  ,Salem,OR,97302
EyeHealth NW Aloha,18345 SW Alexander St Ste D,Aloha,OR,97003
Bethany Optical,15320  NW Central Dr Ste D8,Portland,OR,97229
You & Eye,5656 Hood St Ste 107,West Linn,OR,97068
Northwest Eye Care Professiona,15259 SE 82nd Dr.  ,Clackamas,OR,97015
Schmidt Eyecare,333 S State St Ste T,Lake Oswego,OR,97034
EyeHealth Northwest Milwaukie,11086 SE Oak St  ,Milwaukie,OR,97222
Newberg Family Eye Care,901 Brutscher St Ste E,Newberg,OR,97132
Northwest Eye Care Professiona,15259 SE 82nd Dr.  ,Clackamas,OR,97015
You & Eye,5656 Hood St Ste 107,West Linn,OR,97068
EyeHealth Northwest Milwaukie,11086 SE Oak St  ,Milwaukie,OR,97222
Schmidt Eyecare,333 S State St Ste T,Lake Oswego,OR,97034
Hawthorne Vision Center,4704 S.E. Hawthorne Blvd  ,Portland,OR,97215
EyeHealth NW PDX Providence,5050 NE Hoyt Ste 445,Portland,OR,97213
Blink LLC,2719 Se 21 Ave  ,Portland,OR,97202
Beaumont Vision,4331 NE Fremont St  ,Portland,OR,97213
Valley Vision Clinic PS,22 West Main St  ,Walla Walla,WA,99362
Eyecare Professionals,305 W Park St  ,Livingston,MT,59047
Eyecare Professionals,305 W Park St  ,Livingston,MT,59047
Eyecare Professionals,305 W Park St  ,Livingston,MT,59047
Beartooth Vision Center,2499 Gabel Rd  ,Billings,MT,59102
Billings Vision Center,1331 24th St W  ,Billings,MT,59102
Beartooth Vision Center,2499 Gabel Rd  ,Billings,MT,59102
Billings Vision Center,1331 24th St W  ,Billings,MT,59102
Lake Region Eye Center Inc,610 30th Ave W Ste 200,Alexandria,MN,56308
Lake Region Eye Center Inc,610 30th Ave W Ste 200,Alexandria,MN,56308
Distinctive Eyewear,250 N. Central Ave Wayzata Medical Bldg - Ste 106,Wayzata,MN,55391
Pearle Vision - Minnetonka,1601 Plymouth Rd S  ,Minnetonka,MN,55345
Lake Region Eye Center Inc,610 30th Ave W Ste 200,Alexandria,MN,56308
Pearle Vision Eden Prairie,8251 Flying Cloud Dr Ste 2028,Eden Prairie,MN,55344
Distinctive Eyewear,250 N. Central Ave Wayzata Medical Bldg - Ste 106,Wayzata,MN,55391
Pearle Vision - Minnetonka,1601 Plymouth Rd S  ,Minnetonka,MN,55345
Blaine Family Eye Care,10995 Club West Pkwy  ,Blaine,MN,55449
Dr. David Ulrich,2050 Silver Lake Rd Spectacle Shoppe Inc,New Brighton,MN,55112
Pearle Vision Eden Prairie,8251 Flying Cloud Dr Ste 2028,Eden Prairie,MN,55344
Eye Care Associates,825 Nicollet Mall Ste 2000,Hennipen,MN,55402
Owl Optical,4318 Upton Ave S  ,Minneapolis,MN,55410
Uptown Vision,3553 Hennepin Ave So  ,Minneapolis,MN,55408
Perspective Optometric Clinic,3102 50th St W  ,Minneapolis,MN,55410
St. Anthony Eye Clinic,2929 Pentagon Dr  ,St. Anthony,MN,55418
Blaine Family Eye Care,10995 Club West Pkwy  ,Blaine,MN,55449
Dr. David Ulrich,2050 Silver Lake Rd Spectacle Shoppe Inc,New Brighton,MN,55112
Associated Eye Care Optical,2950 Curve Crest Blvd  ,Stillwater,MN,55082
St. Anthony Eye Clinic,2929 Pentagon Dr  ,St. Anthony,MN,55418
Associated Eye Care Optical,237 Radio Dr Suite 100,Woodbury,MN,55125
Associated Eye Care Optical,2950 Curve Crest Blvd  ,Stillwater,MN,55082
Associated Eye Care Optical,237 Radio Dr Suite 100,Woodbury,MN,55125
Dakota Eye Care,1540 Humboldt Ave Ste 201,St Paul,MN,55118
Spectacle Shoppe Inc,1089 Grand Ave  ,St. Paul,MN,55105
Cherry Optical Lab,1640 B Firelane Dr P.O. Box 12237 ,Green Bay,WI,54311
Cherry Optical Lab,1640 B Firelane Dr P.O. Box 12237 ,Green Bay,WI,54311
Sunglass Shoppe Inc,325 E Lake St  ,Petoskey,MI,49770
Sunglass Shoppe Inc,325 E Lake St  ,Petoskey,MI,49770
Sunglass Shoppe Inc,325 E Lake St  ,Petoskey,MI,49770
Margot's Optical,583 Berford St.  ,Wiarton,ON,N0H2T0
Margot's Optical,583 Berford St.  ,Wiarton,ON,N0H2T0
Margot's Optical,583 Berford St.  ,Wiarton,ON,N0H2T0
Drs Bastien & Prizant,447 Cumberland  ,Ottawa,ON,K1N7J8
Drs Bastien & Prizant,447 Cumberland  ,Ottawa,ON,K1N7J8
Optique Meloche,19 Rue Nicholson  ,Salaberry-de-Valleyfield,QC,J6T4M4
Optique Meloche,19 Rue Nicholson  ,Salaberry-de-Valleyfield,QC,J6T4M4
Clinique d'optometrie BelleVue,125 rue Sainte-Anne  ,Sainte-Anne-de-Bellevue,QC,H9X1M3
Espace Optique Inc,590 Boul St Jacques-Bizard  ,L'Ile-Bizard,QC,H9C2H2
LouisEye Am Soins Oculaires Do,200-990 Chemin Herron  ,Dorval,QC,H9S1B3
Clinique d'optometrie BelleVue,125 rue Sainte-Anne  ,Sainte-Anne-de-Bellevue,QC,H9X1M3
Optique Meloche,19 Rue Nicholson  ,Salaberry-de-Valleyfield,QC,J6T4M4
LouisEye Am Soins Oculaires Do,200-990 Chemin Herron  ,Dorval,QC,H9S1B3
Les Binocles Monk,6540 Monk  ,Montreal,QC,H4E3G1
Espace Optique Inc,590 Boul St Jacques-Bizard  ,L'Ile-Bizard,QC,H9C2H2
E Jim Litresits,5247 Boul Decarie  ,Montreal,QC,H3W3C2
Optique Joanne Mathieu,224 Blvd Wilfrid Laurier  ,Beloeil,QC,J3G4G7
Lunetterie Depani & Koyess,8025-I Boul Taschereau  ,Brossard,QC,J4Y1A4
Les Binocles Monk,6540 Monk  ,Montreal,QC,H4E3G1
Georges Laoun,1396 Rue Sherbrooke Ouest  ,Montreal,QC,H3G1J5
Eye Am Soins Oculaires - Bouch,100 Boul De  Montarville Ste 130  ,Boucherville,QC,J4B5M4
Soins Occulaires Angus Inc,2600 Rue William Tremblay Ste 110 ,Montreal,QC,H1Y3J2
Chapleau Laroche Opticiens,1090 Laurier West  ,Outremont,QC,H2V2K8
E Jim Litresits,5247 Boul Decarie  ,Montreal,QC,H3W3C2
Clinique Optométrique Saint-Jo,1584 Boul St Joseph Est  ,Montreal,QC,H2J1M7
Opto-Réseau Magog,52 Rue Principale Ouest  ,Magog,QC,J1X2A5
Optique Joanne Mathieu,224 Blvd Wilfrid Laurier  ,Beloeil,QC,J3G4G7
Centre Optique Des Bois-Francs,66 Rue St-Jean-Baptiste  ,Victoriaville,QC,G6P4E6
Opto-Réseau Magog,52 Rue Principale Ouest  ,Magog,QC,J1X2A5
Optometrie Gravel,55 Rue Notre-Dame Ouest  ,Thetford Mines,QC,G6G1J4
Longview Eye & Vision,820 Ocean Beach Hwy Ste100,Longview,WA,98632
Longview Eye & Vision,820 Ocean Beach Hwy Ste100,Longview,WA,98632
Salmon Creek Vision Center,14201 NE 20th Ave Ste A102,Vancouver,WA,98686
Bethany Optical,15320  NW Central Dr Ste D8,Portland,OR,97229
EyeHealth NW Aloha,18345 SW Alexander St Ste D,Aloha,OR,97003
Longview Eye & Vision,820 Ocean Beach Hwy Ste100,Longview,WA,98632
Salmon Creek Vision Center,14201 NE 20th Ave Ste A102,Vancouver,WA,98686
Beaumont Vision,4331 NE Fremont St  ,Portland,OR,97213
EyeHealth NW PDX Providence,5050 NE Hoyt Ste 445,Portland,OR,97213
EyeHealth Northwest Northrup,1955 NW Northrup  ,Portland,OR,97209
Bethany Optical,15320  NW Central Dr Ste D8,Portland,OR,97229
Uptown Eyecare & Optical,2370 West Burnside  ,Portland,OR,97210
Hawthorne Vision Center,4704 S.E. Hawthorne Blvd  ,Portland,OR,97215
Blink LLC,2719 Se 21 Ave  ,Portland,OR,97202
Salmon Creek Vision Center,14201 NE 20th Ave Ste A102,Vancouver,WA,98686
EyeHealth NW PDX Providence,5050 NE Hoyt Ste 445,Portland,OR,97213
Beaumont Vision,4331 NE Fremont St  ,Portland,OR,97213
Hawthorne Vision Center,4704 S.E. Hawthorne Blvd  ,Portland,OR,97215
Heaston & Thompson Vision Cli,1321 Aaron Dr  ,Richland,WA,99352
Desert Valley Eye Care,8503 W Clearwater Ave Ste A,Kennewick,WA,99336
Desert Valley Eye Care,8503 W Clearwater Ave Ste A,Kennewick,WA,99336
Heaston & Thompson Vision Cli,1321 Aaron Dr  ,Richland,WA,99352
Valley Vision Clinic PS,22 West Main St  ,Walla Walla,WA,99362
Valley Vision Clinic PS,22 West Main St  ,Walla Walla,WA,99362
Desert Valley Eye Care,8503 W Clearwater Ave Ste A,Kennewick,WA,99336
Heaston & Thompson Vision Cli,1321 Aaron Dr  ,Richland,WA,99352
Valley Vision Clinic PS,22 West Main St  ,Walla Walla,WA,99362
Pullman Vision Source,238 E Main St  ,Pullman,WA,99163
Pullman Vision Source,238 E Main St  ,Pullman,WA,99163
Beatty Eyes,1200 W Kent Ave Ste 101,Missoula,MT,59801
Specticca Opt. Boutique,319 N Higgins Ave  ,Missoula,MT,59802
Montana Eye Care,550 N. Montana Ave  ,Helena,MT,59601
Eyecare Professionals,305 W Park St  ,Livingston,MT,59047
Montana Eye Care,550 N. Montana Ave  ,Helena,MT,59601
Eyecare Professionals,305 W Park St  ,Livingston,MT,59047
Eyecare Professionals,305 W Park St  ,Livingston,MT,59047
Billings Vision Center,1331 24th St W  ,Billings,MT,59102
Beartooth Vision Center,2499 Gabel Rd  ,Billings,MT,59102
Billings Vision Center,1331 24th St W  ,Billings,MT,59102
Beartooth Vision Center,2499 Gabel Rd  ,Billings,MT,59102
Billings Vision Center,1331 24th St W  ,Billings,MT,59102
Beartooth Vision Center,2499 Gabel Rd  ,Billings,MT,59102
Billings Vision Center,1331 24th St W  ,Billings,MT,59102
Beartooth Vision Center,2499 Gabel Rd  ,Billings,MT,59102
Mcculley Optix Gallery,567 32nd Ave E Ste 202,West Fargo,ND,58078
Lake Region Eye Center Inc,610 30th Ave W Ste 200,Alexandria,MN,56308
Lake Region Eye Center Inc,610 30th Ave W Ste 200,Alexandria,MN,56308
Lake Region Eye Center Inc,610 30th Ave W Ste 200,Alexandria,MN,56308
Cambridge Eye Associates,120 East First  ,Cambridge,MN,55008
Cambridge Eye Associates,120 East First  ,Cambridge,MN,55008
Blaine Family Eye Care,10995 Club West Pkwy  ,Blaine,MN,55449
Cambridge Eye Associates,120 East First  ,Cambridge,MN,55008
Sunglass Shoppe Inc,325 E Lake St  ,Petoskey,MI,49770
Sunglass Shoppe Inc,325 E Lake St  ,Petoskey,MI,49770
Sunglass Shoppe Inc,325 E Lake St  ,Petoskey,MI,49770
Drs Bastien & Prizant,447 Cumberland  ,Ottawa,ON,K1N7J8
Drs Bastien & Prizant,447 Cumberland  ,Ottawa,ON,K1N7J8
Vizu-L Lunetterie Salon,235 Grande Cote  ,Rosemere,QC,J7A1H8
Espace Optique Inc,590 Boul St Jacques-Bizard  ,L'Ile-Bizard,QC,H9C2H2
Clinique d'optometrie BelleVue,125 rue Sainte-Anne  ,Sainte-Anne-de-Bellevue,QC,H9X1M3
CEST LA VUE!,2665 Rue De Salaberry  ,Montreal,QC,H3M1L1
Oh! Lunettes Par Sardi Nicopou,2050 Blvd. Marcel-Laurin  ,Saint Laurent,QC,H4R1J9
Vizu-L Lunetterie Salon,235 Grande Cote  ,Rosemere,QC,J7A1H8
Optique Melic,6017 Boulevard Robert  ,Saint-Léonard,QC,H1P1M9
Lunetterie Corbeil,6347 Rue Jean Talon E  ,St-Léonard ,QC,H1S3E7
Duo Vision Opticiens Opt,6402 Sherbrooke St E  ,Montreal,QC,H1N3P6
Salon d'optique Pilotte Nantai,4259 Rue Beaubien E  ,Montreal,QC,H1T1S7
Eye Am Soins Oculaires - Bouch,100 Boul De  Montarville Ste 130  ,Boucherville,QC,J4B5M4
CEST LA VUE!,2665 Rue De Salaberry  ,Montreal,QC,H3M1L1
Vision Rosemont - Villeray,1266 Rue Jean-Talon Est  ,Montreal,QC,H2R1W2
Nicopoulos,299 Jean Talon St E  ,Montreal,QC,H2R1S9
Les Binocles St-Denis,6528 Rue St-Denis  ,Montreal,QC,H2S2R9
Oh! Lunettes Par Sardi Nicopou,2050 Blvd. Marcel-Laurin  ,Saint Laurent,QC,H4R1J9
Soins Occulaires Angus Inc,2600 Rue William Tremblay Ste 110 ,Montreal,QC,H1Y3J2
Clinique Optométrique Saint-Jo,1584 Boul St Joseph Est  ,Montreal,QC,H2J1M7
Optique Joanne Mathieu,224 Blvd Wilfrid Laurier  ,Beloeil,QC,J3G4G7
Eye Am Soins Oculaires - Bouch,100 Boul De  Montarville Ste 130  ,Boucherville,QC,J4B5M4
Duo Vision Opticiens Opt,6402 Sherbrooke St E  ,Montreal,QC,H1N3P6
Lunetterie Corbeil,6347 Rue Jean Talon E  ,St-Léonard ,QC,H1S3E7
Optique Melic,6017 Boulevard Robert  ,Saint-Léonard,QC,H1P1M9
Centre Optique Des Bois-Francs,66 Rue St-Jean-Baptiste  ,Victoriaville,QC,G6P4E6
Optometrie Gravel,55 Rue Notre-Dame Ouest  ,Thetford Mines,QC,G6G1J4
Opto-Réseau Magog,52 Rue Principale Ouest  ,Magog,QC,J1X2A5
Optique Joanne Mathieu,224 Blvd Wilfrid Laurier  ,Beloeil,QC,J3G4G7
Optometrie Gravel,55 Rue Notre-Dame Ouest  ,Thetford Mines,QC,G6G1J4
Centre Optique Des Bois-Francs,66 Rue St-Jean-Baptiste  ,Victoriaville,QC,G6P4E6
Clinique D'Optometrie,12650 1st Ave  ,Saint-Georges,QC,G5Y2E5
Helene Garant Optometriste,1328 Rue Maguire  ,Sillery,QC,G1T1Z3
Clinique D'Optometrie,12650 1st Ave  ,Saint-Georges,QC,G5Y2E5
Optometrie Gravel,55 Rue Notre-Dame Ouest  ,Thetford Mines,QC,G6G1J4
Clinique D'Optometrie,12650 1st Ave  ,Saint-Georges,QC,G5Y2E5
Longview Eye & Vision,820 Ocean Beach Hwy Ste100,Longview,WA,98632
Suburban Opticians,6720 Regents Blvd  ,Tacoma,WA,98466
Gig Harbor Vision Center,3220 Uddenberg Lane Ste 5,Gig Harbor,WA,98335
Suburban Opticians,6720 Regents Blvd  ,Tacoma,WA,98466
Gig Harbor Vision Center,3220 Uddenberg Lane Ste 5,Gig Harbor,WA,98335
Advanced Eyecare Of Covington,17224 SE 272nd St Ste ,Covington,WA,98042
Longview Eye & Vision,820 Ocean Beach Hwy Ste100,Longview,WA,98632
Advanced Eyecare Of Covington,17224 SE 272nd St Ste ,Covington,WA,98042
Suburban Opticians,6720 Regents Blvd  ,Tacoma,WA,98466
Gig Harbor Vision Center,3220 Uddenberg Lane Ste 5,Gig Harbor,WA,98335
Issaquah Vision,450 N W Gilman Blvd Ste 104,Issaquah,WA,98027
Klahanie Eye Care Center,4538  Klahanie Dr. S.E.  ,Issaquah,WA,98029
Lakemont Eye Care,4957 Lakemont Blvd SE Ste C5,Bellevue,WA,98006
Heaston & Thompson Vision Cli,1321 Aaron Dr  ,Richland,WA,99352
Desert Valley Eye Care,8503 W Clearwater Ave Ste A,Kennewick,WA,99336
Heaston & Thompson Vision Cli,1321 Aaron Dr  ,Richland,WA,99352
Desert Valley Eye Care,8503 W Clearwater Ave Ste A,Kennewick,WA,99336
Heaston & Thompson Vision Cli,1321 Aaron Dr  ,Richland,WA,99352
Desert Valley Eye Care,8503 W Clearwater Ave Ste A,Kennewick,WA,99336
Valley Vision Clinic PS,22 West Main St  ,Walla Walla,WA,99362
Pullman Vision Source,238 E Main St  ,Pullman,WA,99163
Valley Vision Clinic PS,22 West Main St  ,Walla Walla,WA,99362
Blink Eyecare,3150 E 27th Ave Ste 100,Spokane,WA,99223
Pullman Vision Source,238 E Main St  ,Pullman,WA,99163
Blink Eyecare,3150 E 27th Ave Ste 100,Spokane,WA,99223
Pullman Vision Source,238 E Main St  ,Pullman,WA,99163
Beatty Eyes,1200 W Kent Ave Ste 101,Missoula,MT,59801
Specticca Opt. Boutique,319 N Higgins Ave  ,Missoula,MT,59802
Beatty Eyes,1200 W Kent Ave Ste 101,Missoula,MT,59801
Specticca Opt. Boutique,319 N Higgins Ave  ,Missoula,MT,59802
Specticca Opt. Boutique,319 N Higgins Ave  ,Missoula,MT,59802
Beatty Eyes,1200 W Kent Ave Ste 101,Missoula,MT,59801
Montana Eye Care,550 N. Montana Ave  ,Helena,MT,59601
Montana Eye Care,550 N. Montana Ave  ,Helena,MT,59601
Montana Eye Care,550 N. Montana Ave  ,Helena,MT,59601
Treasure State Eyecare Center,523 9th St S  ,Great Falls,MT,59405
Treasure State Eyecare Center,523 9th St S  ,Great Falls,MT,59405
Mcculley Optix Gallery,567 32nd Ave E Ste 202,West Fargo,ND,58078
Mcculley Optix Gallery,567 32nd Ave E Ste 202,West Fargo,ND,58078
Mcculley Optix Gallery,567 32nd Ave E Ste 202,West Fargo,ND,58078
Park Rapids Eye Clinic,100 Huntsinger Ave  ,Park Rapids,MN,56470
Park Rapids Eye Clinic,100 Huntsinger Ave  ,Park Rapids,MN,56470
Park Rapids Eye Clinic,100 Huntsinger Ave  ,Park Rapids,MN,56470
Park Rapids Eye Clinic,100 Huntsinger Ave  ,Park Rapids,MN,56470
Eye Am Soins Oculaires,1020 Bouvier Local 130  ,Quebec,QC,G2K0K9
Helene Garant Optometriste,1328 Rue Maguire  ,Sillery,QC,G1T1Z3
Centre Optique Des Bois-Francs,66 Rue St-Jean-Baptiste  ,Victoriaville,QC,G6P4E6
Eye Am Soins Oculaires,1020 Bouvier Local 130  ,Quebec,QC,G2K0K9
Helene Garant Optometriste,1328 Rue Maguire  ,Sillery,QC,G1T1Z3
Optometrie Gravel,55 Rue Notre-Dame Ouest  ,Thetford Mines,QC,G6G1J4
Centre Optique Des Bois-Francs,66 Rue St-Jean-Baptiste  ,Victoriaville,QC,G6P4E6
Clinique D'Optometrie,12650 1st Ave  ,Saint-Georges,QC,G5Y2E5
Helene Garant Optometriste,1328 Rue Maguire  ,Sillery,QC,G1T1Z3
Eye Am Soins Oculaires,1020 Bouvier Local 130  ,Quebec,QC,G2K0K9
Clinique D'Optometrie,12650 1st Ave  ,Saint-Georges,QC,G5Y2E5
Optometrie Gravel,55 Rue Notre-Dame Ouest  ,Thetford Mines,QC,G6G1J4
Kitsap Optical Inc.,3260 NW Mt Vintage Way  ,Silverdale,WA,98383
Pacific Eye Care,20669 Bond Rd NE Ste 100,Poulsbo,WA,98370
Gig Harbor Vision Center,3220 Uddenberg Lane Ste 5,Gig Harbor,WA,98335
Pacific Eye Care,2029 E Sims Way  ,Port Towsend,WA,98368
Kitsap Optical Inc.,3260 NW Mt Vintage Way  ,Silverdale,WA,98383
West Seattle Vision Clinic,6505 California  Ave SW  ,Seattle,WA,98136
Pacific Eye Care,20669 Bond Rd NE Ste 100,Poulsbo,WA,98370
Clearview Eye & Laser,7520 35th Ave SW  ,Seattle,WA,98126
City Eye Care Inc.,1417 Queen Anne Ave. N. Suite #D,Seattle,WA,98109
Klahanie Eye Care Center,4538  Klahanie Dr. S.E.  ,Issaquah,WA,98029
Issaquah Vision,450 N W Gilman Blvd Ste 104,Issaquah,WA,98027
Lakemont Eye Care,4957 Lakemont Blvd SE Ste C5,Bellevue,WA,98006
The Eyecare Center,12310 Ne 8th St Ste 101,Bellevue,WA,98005
Klahanie Eye Care Center,4538  Klahanie Dr. S.E.  ,Issaquah,WA,98029
Issaquah Vision,450 N W Gilman Blvd Ste 104,Issaquah,WA,98027
Lakemont Eye Care,4957 Lakemont Blvd SE Ste C5,Bellevue,WA,98006
Advanced Eyecare Of Covington,17224 SE 272nd St Ste ,Covington,WA,98042
The Eyecare Center,12310 Ne 8th St Ste 101,Bellevue,WA,98005
Children's Eye Care,11800 N E 128th St Ste 430,Kirkland,WA,98034
Eyedentity,941 6th St South  ,Kirkland,WA,98033
Northside Vision Center,601 W Francis Ave  ,Spokane,WA,99205
Blink Eyecare,3150 E 27th Ave Ste 100,Spokane,WA,99223
Northside Vision Center,601 W Francis Ave  ,Spokane,WA,99205
Blink Eyecare,3150 E 27th Ave Ste 100,Spokane,WA,99223
Blink Eyecare,3150 E 27th Ave Ste 100,Spokane,WA,99223
Northside Vision Center,601 W Francis Ave  ,Spokane,WA,99205
Pullman Vision Source,238 E Main St  ,Pullman,WA,99163
Blink Eyecare,3150 E 27th Ave Ste 100,Spokane,WA,99223
Northside Vision Center,601 W Francis Ave  ,Spokane,WA,99205
Specticca Opt. Boutique,319 N Higgins Ave  ,Missoula,MT,59802
Beatty Eyes,1200 W Kent Ave Ste 101,Missoula,MT,59801
Specticca Opt. Boutique,319 N Higgins Ave  ,Missoula,MT,59802
Beatty Eyes,1200 W Kent Ave Ste 101,Missoula,MT,59801
Treasure State Eyecare Center,523 9th St S  ,Great Falls,MT,59405
Treasure State Eyecare Center,523 9th St S  ,Great Falls,MT,59405
Treasure State Eyecare Center,523 9th St S  ,Great Falls,MT,59405
Mcculley Optix Gallery,567 32nd Ave E Ste 202,West Fargo,ND,58078
Mcculley Optix Gallery,567 32nd Ave E Ste 202,West Fargo,ND,58078
Park Rapids Eye Clinic,100 Huntsinger Ave  ,Park Rapids,MN,56470
Park Rapids Eye Clinic,100 Huntsinger Ave  ,Park Rapids,MN,56470
Eye Am Soins Oculaires,1020 Bouvier Local 130  ,Quebec,QC,G2K0K9
Helene Garant Optometriste,1328 Rue Maguire  ,Sillery,QC,G1T1Z3
Eye Am Soins Oculaires,1020 Bouvier Local 130  ,Quebec,QC,G2K0K9
Mayfair Optometric Clinic,3196 Douglas Street  ,Victoria,BC,V8Z3K6
Family Eyecare Centre,749 Yates St  ,Victoria,BC,V8W1L6
Island Eyecare Optometry,1059 Fort St  ,Victoria,BC,V8V3K5
Cordova Bay Optometry,5325 Cordova Bay Rd Ste 127,Victoria,BC,V8Y2L3
Family Eyecare Centre,749 Yates St  ,Victoria,BC,V8W1L6
Island Eyecare Optometry,1059 Fort St  ,Victoria,BC,V8V3K5
Mayfair Optometric Clinic,3196 Douglas Street  ,Victoria,BC,V8Z3K6
Oak Bay Optometry Clinic,2075 Cadboro Bay Rd  ,Victoria,BC,V8R5G4
Pacific Eye Care,2029 E Sims Way  ,Port Towsend,WA,98368
Binyon Vision Center ,411 East Magnolia St Acct 787012,Bellingham,WA,98225
Cadboro Bay Optometric Clinic,2580 Penrhyn St  ,Victoria,BC,V8N1G3
Oak Bay Optometry Clinic,2075 Cadboro Bay Rd  ,Victoria,BC,V8R5G4
Binyon Vision Center ,411 East Magnolia St Acct 787012,Bellingham,WA,98225
Alderwood Optometric Services ,2502 196th St SW  ,Lynnwood,WA,98036
Edmonds Vision Center,201 5th Ave So Ste 102,Edmonds,WA,98020
Pacific Eye Care,2029 E Sims Way  ,Port Towsend,WA,98368
Northside Vision Center,601 W Francis Ave  ,Spokane,WA,99205
Blink Eyecare,3150 E 27th Ave Ste 100,Spokane,WA,99223
Northside Vision Center,601 W Francis Ave  ,Spokane,WA,99205
Blink Eyecare,3150 E 27th Ave Ste 100,Spokane,WA,99223
